<?xml version="1.0" encoding="UTF-8"?>
<gpx xmlns:gpxdata="http://www.cluetrust.com/XML/GPXDATA/1/0" xmlns:xsi="http://www.w3.org/2001/XMLSchema-instance" xmlns="http://www.topografix.com/GPX/1/1" version="1.1" creator="http://ridewithgps.com/" xsi:schemaLocation="http://www.topografix.com/GPX/1/1 http://www.topografix.com/GPX/1/1/gpx.xsd http://www.cluetrust.com/XML/GPXDATA/1/0 http://www.cluetrust.com/Schemas/gpxdata10.xsd">
  <metadata>
    <name>Xtraill Maokong 17km ( A to B )</name>
    <link href="https://ridewithgps.com/routes/54357201">
      <text>Xtraill Maokong 17km ( A to B )</text>
    </link>
    <time>2026-03-24T09:00:58Z</time>
  </metadata>
  <wpt lat="24.98327591351972" lon="121.60921080541647">
    <name>CP1</name>
    <cmt>food</cmt>
    <sym>Dot</sym>
    <type>food</type>
  </wpt>
  <wpt lat="24.962950404722406" lon="121.6079943929168">
    <name>CP2</name>
    <cmt>food</cmt>
    <sym>Dot</sym>
    <type>food</type>
  </wpt>
  <wpt lat="24.98264999999971" lon="121.6076699999993">
    <name>指引人員</name>
    <cmt>caution</cmt>
    <sym>Dot</sym>
    <type>danger</type>
  </wpt>
  <wpt lat="24.981391795550238" lon="121.60093281780792">
    <name>指引人員</name>
    <cmt>caution</cmt>
    <sym>Dot</sym>
    <type>danger</type>
  </wpt>
  <wpt lat="24.97995000000077" lon="121.599110000005">
    <name>10K 降組點</name>
    <cmt>caution</cmt>
    <sym>Dot</sym>
    <type>danger</type>
  </wpt>
  <wpt lat="24.969520000000543" lon="121.62055999999797">
    <name>賽道指引</name>
    <cmt>caution</cmt>
    <sym>Dot</sym>
    <type>danger</type>
  </wpt>
  <wpt lat="24.973371781584035" lon="121.61452294539401">
    <name>水站1</name>
    <cmt>water</cmt>
    <sym>Dot</sym>
    <type>water</type>
  </wpt>
  <trk>
    <name>Xtraill Maokong 17km ( A to B )</name>
    <trkseg>
      <trkpt lat="24.99929" lon="121.58134">
        <ele>26.0</ele>
      </trkpt>
      <trkpt lat="24.99958" lon="121.58182">
        <ele>26.0</ele>
      </trkpt>
      <trkpt lat="24.99963" lon="121.58191">
        <ele>21.0</ele>
      </trkpt>
      <trkpt lat="24.9998" lon="121.5822">
        <ele>27.0</ele>
      </trkpt>
      <trkpt lat="24.99989" lon="121.58236">
        <ele>27.0</ele>
      </trkpt>
      <trkpt lat="24.99993" lon="121.58244">
        <ele>27.0</ele>
      </trkpt>
      <trkpt lat="24.99997" lon="121.58255">
        <ele>27.0</ele>
      </trkpt>
      <trkpt lat="24.99998" lon="121.58264">
        <ele>27.0</ele>
      </trkpt>
      <trkpt lat="24.99998" lon="121.58268">
        <ele>27.0</ele>
      </trkpt>
      <trkpt lat="24.99998" lon="121.58272">
        <ele>27.0</ele>
      </trkpt>
      <trkpt lat="24.99998" lon="121.58278">
        <ele>27.0</ele>
      </trkpt>
      <trkpt lat="24.99998" lon="121.58285">
        <ele>27.0</ele>
      </trkpt>
      <trkpt lat="24.99998" lon="121.5829">
        <ele>27.0</ele>
      </trkpt>
      <trkpt lat="25.00001" lon="121.58299">
        <ele>31.0</ele>
      </trkpt>
      <trkpt lat="25.00003" lon="121.58305">
        <ele>31.3</ele>
      </trkpt>
      <trkpt lat="25.00005" lon="121.58311">
        <ele>31.5</ele>
      </trkpt>
      <trkpt lat="25.00007" lon="121.58315">
        <ele>31.6</ele>
      </trkpt>
      <trkpt lat="25.00008" lon="121.58318">
        <ele>31.7</ele>
      </trkpt>
      <trkpt lat="25.0001" lon="121.58322">
        <ele>31.7</ele>
      </trkpt>
      <trkpt lat="25.00013" lon="121.58324">
        <ele>31.5</ele>
      </trkpt>
      <trkpt lat="25.00013" lon="121.58324">
        <ele>31.5</ele>
      </trkpt>
      <trkpt lat="25.0001" lon="121.58327">
        <ele>32.1</ele>
      </trkpt>
      <trkpt lat="25.00008" lon="121.58329">
        <ele>32.5</ele>
      </trkpt>
      <trkpt lat="25.00007" lon="121.58331">
        <ele>32.8</ele>
      </trkpt>
      <trkpt lat="25.00005" lon="121.58334">
        <ele>33.3</ele>
      </trkpt>
      <trkpt lat="25.00004" lon="121.58338">
        <ele>33.5</ele>
      </trkpt>
      <trkpt lat="25.00003" lon="121.58341">
        <ele>33.7</ele>
      </trkpt>
      <trkpt lat="25.00002" lon="121.58346">
        <ele>33.9</ele>
      </trkpt>
      <trkpt lat="25.00001" lon="121.58355">
        <ele>34.1</ele>
      </trkpt>
      <trkpt lat="25.00001" lon="121.58357">
        <ele>34.2</ele>
      </trkpt>
      <trkpt lat="25.0" lon="121.58362">
        <ele>34.0</ele>
      </trkpt>
      <trkpt lat="24.99999" lon="121.58372">
        <ele>34.0</ele>
      </trkpt>
      <trkpt lat="24.99998" lon="121.58376">
        <ele>35.0</ele>
      </trkpt>
      <trkpt lat="24.99998" lon="121.58378">
        <ele>35.0</ele>
      </trkpt>
      <trkpt lat="24.99997" lon="121.58392">
        <ele>35.0</ele>
      </trkpt>
      <trkpt lat="24.99996" lon="121.58405">
        <ele>35.0</ele>
      </trkpt>
      <trkpt lat="24.99996" lon="121.58413">
        <ele>35.0</ele>
      </trkpt>
      <trkpt lat="24.99996" lon="121.58419">
        <ele>35.0</ele>
      </trkpt>
      <trkpt lat="24.99998" lon="121.58436">
        <ele>35.0</ele>
      </trkpt>
      <trkpt lat="24.99992" lon="121.58472">
        <ele>37.0</ele>
      </trkpt>
      <trkpt lat="24.99987" lon="121.58513">
        <ele>37.0</ele>
      </trkpt>
      <trkpt lat="24.99984" lon="121.58536">
        <ele>37.0</ele>
      </trkpt>
      <trkpt lat="24.9998" lon="121.5856">
        <ele>33.0</ele>
      </trkpt>
      <trkpt lat="24.99979" lon="121.58566">
        <ele>33.0</ele>
      </trkpt>
      <trkpt lat="24.99976" lon="121.58579">
        <ele>33.0</ele>
      </trkpt>
      <trkpt lat="24.99972" lon="121.58589">
        <ele>33.0</ele>
      </trkpt>
      <trkpt lat="24.99968" lon="121.58599">
        <ele>33.0</ele>
      </trkpt>
      <trkpt lat="24.9996" lon="121.58619">
        <ele>33.0</ele>
      </trkpt>
      <trkpt lat="24.99954" lon="121.58634">
        <ele>38.0</ele>
      </trkpt>
      <trkpt lat="24.99951" lon="121.58641">
        <ele>38.0</ele>
      </trkpt>
      <trkpt lat="24.9995" lon="121.58645">
        <ele>38.0</ele>
      </trkpt>
      <trkpt lat="24.99949" lon="121.58651">
        <ele>38.0</ele>
      </trkpt>
      <trkpt lat="24.99949" lon="121.58655">
        <ele>38.0</ele>
      </trkpt>
      <trkpt lat="24.99949" lon="121.58659">
        <ele>38.0</ele>
      </trkpt>
      <trkpt lat="24.99951" lon="121.58667">
        <ele>38.0</ele>
      </trkpt>
      <trkpt lat="24.99952" lon="121.58674">
        <ele>38.0</ele>
      </trkpt>
      <trkpt lat="24.99955" lon="121.58685">
        <ele>38.0</ele>
      </trkpt>
      <trkpt lat="24.99958" lon="121.58696">
        <ele>38.0</ele>
      </trkpt>
      <trkpt lat="24.99968" lon="121.58739">
        <ele>34.0</ele>
      </trkpt>
      <trkpt lat="24.99969" lon="121.58743">
        <ele>34.0</ele>
      </trkpt>
      <trkpt lat="24.99976" lon="121.58772">
        <ele>34.0</ele>
      </trkpt>
      <trkpt lat="24.99981" lon="121.58798">
        <ele>28.0</ele>
      </trkpt>
      <trkpt lat="24.99982" lon="121.588">
        <ele>28.0</ele>
      </trkpt>
      <trkpt lat="24.99982" lon="121.58801">
        <ele>28.0</ele>
      </trkpt>
      <trkpt lat="24.99985" lon="121.588">
        <ele>28.0</ele>
      </trkpt>
      <trkpt lat="24.99985" lon="121.588">
        <ele>28.0</ele>
      </trkpt>
      <trkpt lat="24.99987" lon="121.58807">
        <ele>28.0</ele>
      </trkpt>
      <trkpt lat="24.99987" lon="121.58816">
        <ele>28.0</ele>
      </trkpt>
      <trkpt lat="24.99985" lon="121.58824">
        <ele>28.0</ele>
      </trkpt>
      <trkpt lat="24.99981" lon="121.58833">
        <ele>28.0</ele>
      </trkpt>
      <trkpt lat="24.99973" lon="121.58845">
        <ele>28.0</ele>
      </trkpt>
      <trkpt lat="24.9992" lon="121.58915">
        <ele>34.0</ele>
      </trkpt>
      <trkpt lat="24.99866" lon="121.58986">
        <ele>40.3</ele>
      </trkpt>
      <trkpt lat="24.99813" lon="121.59056">
        <ele>37.3</ele>
      </trkpt>
      <trkpt lat="24.99759" lon="121.59127">
        <ele>39.6</ele>
      </trkpt>
      <trkpt lat="24.9974" lon="121.59147">
        <ele>40.6</ele>
      </trkpt>
      <trkpt lat="24.99727" lon="121.5916">
        <ele>43.2</ele>
      </trkpt>
      <trkpt lat="24.9971" lon="121.59175">
        <ele>47.4</ele>
      </trkpt>
      <trkpt lat="24.99702" lon="121.59184">
        <ele>48.6</ele>
      </trkpt>
      <trkpt lat="24.9969" lon="121.59199">
        <ele>49.1</ele>
      </trkpt>
      <trkpt lat="24.99678" lon="121.59218">
        <ele>47.2</ele>
      </trkpt>
      <trkpt lat="24.99664" lon="121.59242">
        <ele>43.4</ele>
      </trkpt>
      <trkpt lat="24.99655" lon="121.59267">
        <ele>42.7</ele>
      </trkpt>
      <trkpt lat="24.99646" lon="121.59304">
        <ele>39.7</ele>
      </trkpt>
      <trkpt lat="24.99642" lon="121.59303">
        <ele>41.6</ele>
      </trkpt>
      <trkpt lat="24.99635" lon="121.59332">
        <ele>37.7</ele>
      </trkpt>
      <trkpt lat="24.99633" lon="121.59337">
        <ele>38.2</ele>
      </trkpt>
      <trkpt lat="24.99616" lon="121.59366">
        <ele>39.5</ele>
      </trkpt>
      <trkpt lat="24.99614" lon="121.59371">
        <ele>39.7</ele>
      </trkpt>
      <trkpt lat="24.99616" lon="121.59374">
        <ele>39.8</ele>
      </trkpt>
      <trkpt lat="24.99622" lon="121.59375">
        <ele>40.1</ele>
      </trkpt>
      <trkpt lat="24.99622" lon="121.59391">
        <ele>40.7</ele>
      </trkpt>
      <trkpt lat="24.99628" lon="121.59405">
        <ele>41.2</ele>
      </trkpt>
      <trkpt lat="24.99632" lon="121.59409">
        <ele>41.5</ele>
      </trkpt>
      <trkpt lat="24.99623" lon="121.59421">
        <ele>42.1</ele>
      </trkpt>
      <trkpt lat="24.99614" lon="121.5943">
        <ele>45.5</ele>
      </trkpt>
      <trkpt lat="24.99575" lon="121.59451">
        <ele>52.5</ele>
      </trkpt>
      <trkpt lat="24.99568" lon="121.59457">
        <ele>53.6</ele>
      </trkpt>
      <trkpt lat="24.99563" lon="121.59463">
        <ele>54.6</ele>
      </trkpt>
      <trkpt lat="24.99557" lon="121.59473">
        <ele>56.1</ele>
      </trkpt>
      <trkpt lat="24.99553" lon="121.59483">
        <ele>57.5</ele>
      </trkpt>
      <trkpt lat="24.99551" lon="121.59497">
        <ele>59.9</ele>
      </trkpt>
      <trkpt lat="24.99549" lon="121.59516">
        <ele>64.4</ele>
      </trkpt>
      <trkpt lat="24.99544" lon="121.59527">
        <ele>66.1</ele>
      </trkpt>
      <trkpt lat="24.99531" lon="121.59537">
        <ele>65.2</ele>
      </trkpt>
      <trkpt lat="24.99514" lon="121.59543">
        <ele>61.9</ele>
      </trkpt>
      <trkpt lat="24.99508" lon="121.59546">
        <ele>60.9</ele>
      </trkpt>
      <trkpt lat="24.995" lon="121.59553">
        <ele>60.4</ele>
      </trkpt>
      <trkpt lat="24.99473" lon="121.59587">
        <ele>67.2</ele>
      </trkpt>
      <trkpt lat="24.99467" lon="121.59592">
        <ele>68.3</ele>
      </trkpt>
      <trkpt lat="24.99438" lon="121.59608">
        <ele>70.9</ele>
      </trkpt>
      <trkpt lat="24.9943" lon="121.59614">
        <ele>72.0</ele>
      </trkpt>
      <trkpt lat="24.99417" lon="121.59621">
        <ele>72.9</ele>
      </trkpt>
      <trkpt lat="24.99392" lon="121.59642">
        <ele>80.0</ele>
      </trkpt>
      <trkpt lat="24.99359" lon="121.59667">
        <ele>84.7</ele>
      </trkpt>
      <trkpt lat="24.99327" lon="121.59681">
        <ele>87.1</ele>
      </trkpt>
      <trkpt lat="24.993" lon="121.59687">
        <ele>83.0</ele>
      </trkpt>
      <trkpt lat="24.99277" lon="121.59701">
        <ele>81.1</ele>
      </trkpt>
      <trkpt lat="24.99277" lon="121.59701">
        <ele>81.1</ele>
      </trkpt>
      <trkpt lat="24.99237" lon="121.5972">
        <ele>78.1</ele>
      </trkpt>
      <trkpt lat="24.9918" lon="121.59753">
        <ele>83.9</ele>
      </trkpt>
      <trkpt lat="24.99155" lon="121.59753">
        <ele>85.3</ele>
      </trkpt>
      <trkpt lat="24.99144" lon="121.59755">
        <ele>87.2</ele>
      </trkpt>
      <trkpt lat="24.99136" lon="121.59761">
        <ele>89.3</ele>
      </trkpt>
      <trkpt lat="24.99133" lon="121.59765">
        <ele>90.2</ele>
      </trkpt>
      <trkpt lat="24.99133" lon="121.59765">
        <ele>90.2</ele>
      </trkpt>
      <trkpt lat="24.99117" lon="121.59789">
        <ele>94.7</ele>
      </trkpt>
      <trkpt lat="24.9911" lon="121.59797">
        <ele>95.7</ele>
      </trkpt>
      <trkpt lat="24.99084" lon="121.59813">
        <ele>96.5</ele>
      </trkpt>
      <trkpt lat="24.99075" lon="121.59816">
        <ele>97.6</ele>
      </trkpt>
      <trkpt lat="24.99062" lon="121.59825">
        <ele>99.3</ele>
      </trkpt>
      <trkpt lat="24.9904" lon="121.59862">
        <ele>108.7</ele>
      </trkpt>
      <trkpt lat="24.99034" lon="121.59866">
        <ele>110.2</ele>
      </trkpt>
      <trkpt lat="24.99029" lon="121.59867">
        <ele>110.9</ele>
      </trkpt>
      <trkpt lat="24.99002" lon="121.59853">
        <ele>110.8</ele>
      </trkpt>
      <trkpt lat="24.98979" lon="121.5982">
        <ele>113.4</ele>
      </trkpt>
      <trkpt lat="24.98951" lon="121.59787">
        <ele>118.8</ele>
      </trkpt>
      <trkpt lat="24.9894" lon="121.59782">
        <ele>121.1</ele>
      </trkpt>
      <trkpt lat="24.9894" lon="121.59782">
        <ele>121.1</ele>
      </trkpt>
      <trkpt lat="24.9892" lon="121.59776">
        <ele>125.5</ele>
      </trkpt>
      <trkpt lat="24.98896" lon="121.5976">
        <ele>130.1</ele>
      </trkpt>
      <trkpt lat="24.98896" lon="121.59769">
        <ele>132.0</ele>
      </trkpt>
      <trkpt lat="24.98897" lon="121.59773">
        <ele>132.5</ele>
      </trkpt>
      <trkpt lat="24.98905" lon="121.59783">
        <ele>131.7</ele>
      </trkpt>
      <trkpt lat="24.989083" lon="121.597909">
        <ele>132.0</ele>
      </trkpt>
      <trkpt lat="24.98913" lon="121.59802">
        <ele>132.2</ele>
      </trkpt>
      <trkpt lat="24.98922" lon="121.59814">
        <ele>131.1</ele>
      </trkpt>
      <trkpt lat="24.98933" lon="121.59822">
        <ele>128.7</ele>
      </trkpt>
      <trkpt lat="24.98937" lon="121.59832">
        <ele>128.7</ele>
      </trkpt>
      <trkpt lat="24.98948" lon="121.59846">
        <ele>128.6</ele>
      </trkpt>
      <trkpt lat="24.9894" lon="121.59852">
        <ele>133.3</ele>
      </trkpt>
      <trkpt lat="24.98947" lon="121.59864">
        <ele>134.0</ele>
      </trkpt>
      <trkpt lat="24.98952" lon="121.59869">
        <ele>133.4</ele>
      </trkpt>
      <trkpt lat="24.98952" lon="121.59871">
        <ele>134.0</ele>
      </trkpt>
      <trkpt lat="24.98952" lon="121.59871">
        <ele>134.0</ele>
      </trkpt>
      <trkpt lat="24.98954" lon="121.59899">
        <ele>140.7</ele>
      </trkpt>
      <trkpt lat="24.9895" lon="121.59905">
        <ele>144.2</ele>
      </trkpt>
      <trkpt lat="24.98949" lon="121.59921">
        <ele>148.4</ele>
      </trkpt>
      <trkpt lat="24.98928" lon="121.59974">
        <ele>163.5</ele>
      </trkpt>
      <trkpt lat="24.98923" lon="121.59986">
        <ele>166.5</ele>
      </trkpt>
      <trkpt lat="24.98919" lon="121.60005">
        <ele>169.5</ele>
      </trkpt>
      <trkpt lat="24.98923" lon="121.60014">
        <ele>168.6</ele>
      </trkpt>
      <trkpt lat="24.98899" lon="121.60018">
        <ele>179.0</ele>
      </trkpt>
      <trkpt lat="24.98891" lon="121.60023">
        <ele>182.8</ele>
      </trkpt>
      <trkpt lat="24.98876" lon="121.60028">
        <ele>189.5</ele>
      </trkpt>
      <trkpt lat="24.98874" lon="121.60035">
        <ele>190.3</ele>
      </trkpt>
      <trkpt lat="24.98866" lon="121.60039">
        <ele>193.7</ele>
      </trkpt>
      <trkpt lat="24.98869" lon="121.60055">
        <ele>191.9</ele>
      </trkpt>
      <trkpt lat="24.98866" lon="121.60071">
        <ele>192.6</ele>
      </trkpt>
      <trkpt lat="24.98861" lon="121.60088">
        <ele>194.5</ele>
      </trkpt>
      <trkpt lat="24.98842" lon="121.60095">
        <ele>201.8</ele>
      </trkpt>
      <trkpt lat="24.98832" lon="121.60124">
        <ele>207.3</ele>
      </trkpt>
      <trkpt lat="24.98836" lon="121.6014">
        <ele>207.2</ele>
      </trkpt>
      <trkpt lat="24.98835" lon="121.60153">
        <ele>208.5</ele>
      </trkpt>
      <trkpt lat="24.98825" lon="121.60173">
        <ele>211.1</ele>
      </trkpt>
      <trkpt lat="24.98826" lon="121.6019">
        <ele>210.5</ele>
      </trkpt>
      <trkpt lat="24.98821" lon="121.60198">
        <ele>210.4</ele>
      </trkpt>
      <trkpt lat="24.98811" lon="121.60222">
        <ele>208.5</ele>
      </trkpt>
      <trkpt lat="24.98806" lon="121.60229">
        <ele>207.4</ele>
      </trkpt>
      <trkpt lat="24.98799" lon="121.6023">
        <ele>206.6</ele>
      </trkpt>
      <trkpt lat="24.98793" lon="121.60234">
        <ele>205.3</ele>
      </trkpt>
      <trkpt lat="24.98787" lon="121.60235">
        <ele>204.5</ele>
      </trkpt>
      <trkpt lat="24.98772" lon="121.60231">
        <ele>203.7</ele>
      </trkpt>
      <trkpt lat="24.9876" lon="121.60233">
        <ele>201.8</ele>
      </trkpt>
      <trkpt lat="24.98754" lon="121.60232">
        <ele>201.5</ele>
      </trkpt>
      <trkpt lat="24.98745" lon="121.60228">
        <ele>202.2</ele>
      </trkpt>
      <trkpt lat="24.98752" lon="121.60235">
        <ele>200.3</ele>
      </trkpt>
      <trkpt lat="24.98757" lon="121.60237">
        <ele>200.3</ele>
      </trkpt>
      <trkpt lat="24.98762" lon="121.60238">
        <ele>200.6</ele>
      </trkpt>
      <trkpt lat="24.98768" lon="121.60243">
        <ele>200.1</ele>
      </trkpt>
      <trkpt lat="24.98798" lon="121.6026">
        <ele>201.4</ele>
      </trkpt>
      <trkpt lat="24.98796" lon="121.60271">
        <ele>198.6</ele>
      </trkpt>
      <trkpt lat="24.98792" lon="121.60271">
        <ele>197.8</ele>
      </trkpt>
      <trkpt lat="24.98789" lon="121.60278">
        <ele>195.6</ele>
      </trkpt>
      <trkpt lat="24.98788" lon="121.60284">
        <ele>193.9</ele>
      </trkpt>
      <trkpt lat="24.98785" lon="121.60287">
        <ele>192.6</ele>
      </trkpt>
      <trkpt lat="24.98785" lon="121.60293">
        <ele>191.2</ele>
      </trkpt>
      <trkpt lat="24.98788" lon="121.60306">
        <ele>188.8</ele>
      </trkpt>
      <trkpt lat="24.98789" lon="121.60316">
        <ele>186.8</ele>
      </trkpt>
      <trkpt lat="24.98798" lon="121.60328">
        <ele>186.4</ele>
      </trkpt>
      <trkpt lat="24.98798" lon="121.60328">
        <ele>186.4</ele>
      </trkpt>
      <trkpt lat="24.98801" lon="121.60333">
        <ele>186.2</ele>
      </trkpt>
      <trkpt lat="24.98804" lon="121.60336">
        <ele>185.9</ele>
      </trkpt>
      <trkpt lat="24.98825" lon="121.60343">
        <ele>189.0</ele>
      </trkpt>
      <trkpt lat="24.9884" lon="121.60338">
        <ele>192.4</ele>
      </trkpt>
      <trkpt lat="24.98847" lon="121.60354">
        <ele>185.3</ele>
      </trkpt>
      <trkpt lat="24.98851" lon="121.60366">
        <ele>180.3</ele>
      </trkpt>
      <trkpt lat="24.98856" lon="121.60372">
        <ele>177.5</ele>
      </trkpt>
      <trkpt lat="24.98856" lon="121.60384">
        <ele>172.9</ele>
      </trkpt>
      <trkpt lat="24.9886" lon="121.6039">
        <ele>170.2</ele>
      </trkpt>
      <trkpt lat="24.98875" lon="121.60392">
        <ele>168.2</ele>
      </trkpt>
      <trkpt lat="24.9888" lon="121.60395">
        <ele>166.6</ele>
      </trkpt>
      <trkpt lat="24.98886" lon="121.60394">
        <ele>166.5</ele>
      </trkpt>
      <trkpt lat="24.98888" lon="121.60398">
        <ele>164.9</ele>
      </trkpt>
      <trkpt lat="24.98889" lon="121.60402">
        <ele>163.3</ele>
      </trkpt>
      <trkpt lat="24.98892" lon="121.60407">
        <ele>161.3</ele>
      </trkpt>
      <trkpt lat="24.98894" lon="121.60417">
        <ele>157.5</ele>
      </trkpt>
      <trkpt lat="24.98899" lon="121.60417">
        <ele>157.1</ele>
      </trkpt>
      <trkpt lat="24.98906" lon="121.60409">
        <ele>159.5</ele>
      </trkpt>
      <trkpt lat="24.98914" lon="121.60407">
        <ele>159.6</ele>
      </trkpt>
      <trkpt lat="24.98925" lon="121.60412">
        <ele>154.7</ele>
      </trkpt>
      <trkpt lat="24.98934" lon="121.60419">
        <ele>149.3</ele>
      </trkpt>
      <trkpt lat="24.98939" lon="121.60427">
        <ele>144.7</ele>
      </trkpt>
      <trkpt lat="24.98947" lon="121.60429">
        <ele>141.5</ele>
      </trkpt>
      <trkpt lat="24.98952" lon="121.60435">
        <ele>137.9</ele>
      </trkpt>
      <trkpt lat="24.98959" lon="121.60436">
        <ele>135.5</ele>
      </trkpt>
      <trkpt lat="24.98962" lon="121.60444">
        <ele>132.1</ele>
      </trkpt>
      <trkpt lat="24.98967" lon="121.60448">
        <ele>129.5</ele>
      </trkpt>
      <trkpt lat="24.98972" lon="121.60454">
        <ele>126.3</ele>
      </trkpt>
      <trkpt lat="24.98979" lon="121.60466">
        <ele>121.1</ele>
      </trkpt>
      <trkpt lat="24.98984" lon="121.60472">
        <ele>118.3</ele>
      </trkpt>
      <trkpt lat="24.98988" lon="121.60474">
        <ele>116.9</ele>
      </trkpt>
      <trkpt lat="24.99001" lon="121.60488">
        <ele>110.8</ele>
      </trkpt>
      <trkpt lat="24.99008" lon="121.60494">
        <ele>109.0</ele>
      </trkpt>
      <trkpt lat="24.99016" lon="121.60498">
        <ele>107.7</ele>
      </trkpt>
      <trkpt lat="24.99023" lon="121.60509">
        <ele>105.1</ele>
      </trkpt>
      <trkpt lat="24.99034" lon="121.60518">
        <ele>103.1</ele>
      </trkpt>
      <trkpt lat="24.99041" lon="121.60531">
        <ele>100.6</ele>
      </trkpt>
      <trkpt lat="24.99037" lon="121.60537">
        <ele>99.6</ele>
      </trkpt>
      <trkpt lat="24.99033" lon="121.60541">
        <ele>98.8</ele>
      </trkpt>
      <trkpt lat="24.99033" lon="121.60544">
        <ele>98.3</ele>
      </trkpt>
      <trkpt lat="24.99027" lon="121.60546">
        <ele>97.8</ele>
      </trkpt>
      <trkpt lat="24.99016" lon="121.60546">
        <ele>97.7</ele>
      </trkpt>
      <trkpt lat="24.99019" lon="121.60549">
        <ele>97.1</ele>
      </trkpt>
      <trkpt lat="24.99023" lon="121.60558">
        <ele>95.4</ele>
      </trkpt>
      <trkpt lat="24.99026" lon="121.60571">
        <ele>93.0</ele>
      </trkpt>
      <trkpt lat="24.99025" lon="121.6058">
        <ele>91.2</ele>
      </trkpt>
      <trkpt lat="24.9902" lon="121.60589">
        <ele>89.7</ele>
      </trkpt>
      <trkpt lat="24.99019" lon="121.60593">
        <ele>89.4</ele>
      </trkpt>
      <trkpt lat="24.99018" lon="121.60604">
        <ele>88.4</ele>
      </trkpt>
      <trkpt lat="24.99019" lon="121.60612">
        <ele>87.8</ele>
      </trkpt>
      <trkpt lat="24.99021" lon="121.60618">
        <ele>87.3</ele>
      </trkpt>
      <trkpt lat="24.99025" lon="121.60624">
        <ele>86.8</ele>
      </trkpt>
      <trkpt lat="24.99036" lon="121.60625">
        <ele>86.6</ele>
      </trkpt>
      <trkpt lat="24.99056" lon="121.60625">
        <ele>86.3</ele>
      </trkpt>
      <trkpt lat="24.99061" lon="121.60631">
        <ele>85.3</ele>
      </trkpt>
      <trkpt lat="24.99062" lon="121.60656">
        <ele>81.4</ele>
      </trkpt>
      <trkpt lat="24.99065" lon="121.60679">
        <ele>81.0</ele>
      </trkpt>
      <trkpt lat="24.99065" lon="121.6069">
        <ele>82.4</ele>
      </trkpt>
      <trkpt lat="24.99063" lon="121.60698">
        <ele>83.7</ele>
      </trkpt>
      <trkpt lat="24.9905" lon="121.60691">
        <ele>84.9</ele>
      </trkpt>
      <trkpt lat="24.99035" lon="121.60684">
        <ele>85.9</ele>
      </trkpt>
      <trkpt lat="24.99011" lon="121.60678">
        <ele>87.5</ele>
      </trkpt>
      <trkpt lat="24.98966" lon="121.60672">
        <ele>93.1</ele>
      </trkpt>
      <trkpt lat="24.98955" lon="121.60669">
        <ele>93.7</ele>
      </trkpt>
      <trkpt lat="24.98942" lon="121.60663">
        <ele>94.7</ele>
      </trkpt>
      <trkpt lat="24.98912" lon="121.60644">
        <ele>99.1</ele>
      </trkpt>
      <trkpt lat="24.989" lon="121.60639">
        <ele>101.7</ele>
      </trkpt>
      <trkpt lat="24.98857" lon="121.60631">
        <ele>109.9</ele>
      </trkpt>
      <trkpt lat="24.98846" lon="121.60622">
        <ele>109.1</ele>
      </trkpt>
      <trkpt lat="24.98834" lon="121.60624">
        <ele>112.0</ele>
      </trkpt>
      <trkpt lat="24.98819" lon="121.60633">
        <ele>118.5</ele>
      </trkpt>
      <trkpt lat="24.98793" lon="121.6062">
        <ele>120.0</ele>
      </trkpt>
      <trkpt lat="24.98778" lon="121.6062">
        <ele>123.6</ele>
      </trkpt>
      <trkpt lat="24.9876" lon="121.60633">
        <ele>130.3</ele>
      </trkpt>
      <trkpt lat="24.98759" lon="121.60635">
        <ele>130.9</ele>
      </trkpt>
      <trkpt lat="24.98752" lon="121.6065">
        <ele>134.9</ele>
      </trkpt>
      <trkpt lat="24.98741" lon="121.60665">
        <ele>139.9</ele>
      </trkpt>
      <trkpt lat="24.98723" lon="121.60674">
        <ele>147.9</ele>
      </trkpt>
      <trkpt lat="24.98708" lon="121.60678">
        <ele>152.5</ele>
      </trkpt>
      <trkpt lat="24.98694" lon="121.60689">
        <ele>158.4</ele>
      </trkpt>
      <trkpt lat="24.98677" lon="121.6071">
        <ele>164.8</ele>
      </trkpt>
      <trkpt lat="24.98659" lon="121.60724">
        <ele>168.2</ele>
      </trkpt>
      <trkpt lat="24.98653" lon="121.60739">
        <ele>171.0</ele>
      </trkpt>
      <trkpt lat="24.98645" lon="121.60748">
        <ele>172.9</ele>
      </trkpt>
      <trkpt lat="24.98638" lon="121.60766">
        <ele>178.8</ele>
      </trkpt>
      <trkpt lat="24.98633" lon="121.60775">
        <ele>181.8</ele>
      </trkpt>
      <trkpt lat="24.98623" lon="121.60782">
        <ele>183.8</ele>
      </trkpt>
      <trkpt lat="24.98602" lon="121.6079">
        <ele>185.3</ele>
      </trkpt>
      <trkpt lat="24.98605" lon="121.60783">
        <ele>183.9</ele>
      </trkpt>
      <trkpt lat="24.98607" lon="121.60775">
        <ele>182.2</ele>
      </trkpt>
      <trkpt lat="24.98607" lon="121.60772">
        <ele>181.5</ele>
      </trkpt>
      <trkpt lat="24.98605" lon="121.60767">
        <ele>180.5</ele>
      </trkpt>
      <trkpt lat="24.98601" lon="121.60764">
        <ele>180.1</ele>
      </trkpt>
      <trkpt lat="24.98599" lon="121.60759">
        <ele>179.2</ele>
      </trkpt>
      <trkpt lat="24.98597" lon="121.60757">
        <ele>179.0</ele>
      </trkpt>
      <trkpt lat="24.98594" lon="121.60756">
        <ele>179.0</ele>
      </trkpt>
      <trkpt lat="24.98589" lon="121.60756">
        <ele>179.4</ele>
      </trkpt>
      <trkpt lat="24.98575" lon="121.60758">
        <ele>182.7</ele>
      </trkpt>
      <trkpt lat="24.9857" lon="121.60761">
        <ele>184.6</ele>
      </trkpt>
      <trkpt lat="24.98569" lon="121.60761">
        <ele>184.9</ele>
      </trkpt>
      <trkpt lat="24.98565" lon="121.60749">
        <ele>185.2</ele>
      </trkpt>
      <trkpt lat="24.98561" lon="121.60739">
        <ele>187.3</ele>
      </trkpt>
      <trkpt lat="24.98562" lon="121.60733">
        <ele>187.4</ele>
      </trkpt>
      <trkpt lat="24.98565" lon="121.6073">
        <ele>186.6</ele>
      </trkpt>
      <trkpt lat="24.98567" lon="121.60723">
        <ele>186.3</ele>
      </trkpt>
      <trkpt lat="24.98566" lon="121.60718">
        <ele>187.1</ele>
      </trkpt>
      <trkpt lat="24.98564" lon="121.60717">
        <ele>187.9</ele>
      </trkpt>
      <trkpt lat="24.98558" lon="121.60709">
        <ele>190.8</ele>
      </trkpt>
      <trkpt lat="24.98554" lon="121.60708">
        <ele>192.5</ele>
      </trkpt>
      <trkpt lat="24.98551" lon="121.60703">
        <ele>194.1</ele>
      </trkpt>
      <trkpt lat="24.98545" lon="121.60699">
        <ele>196.9</ele>
      </trkpt>
      <trkpt lat="24.98531" lon="121.60711">
        <ele>201.1</ele>
      </trkpt>
      <trkpt lat="24.98531" lon="121.60711">
        <ele>201.1</ele>
      </trkpt>
      <trkpt lat="24.98526" lon="121.60712">
        <ele>202.9</ele>
      </trkpt>
      <trkpt lat="24.98516" lon="121.60727">
        <ele>204.7</ele>
      </trkpt>
      <trkpt lat="24.9851" lon="121.6075">
        <ele>203.6</ele>
      </trkpt>
      <trkpt lat="24.98505" lon="121.60762">
        <ele>203.9</ele>
      </trkpt>
      <trkpt lat="24.98486" lon="121.60782">
        <ele>208.7</ele>
      </trkpt>
      <trkpt lat="24.98475" lon="121.60798">
        <ele>210.8</ele>
      </trkpt>
      <trkpt lat="24.98462" lon="121.6081">
        <ele>213.9</ele>
      </trkpt>
      <trkpt lat="24.98448" lon="121.60813">
        <ele>218.8</ele>
      </trkpt>
      <trkpt lat="24.98448" lon="121.60813">
        <ele>218.8</ele>
      </trkpt>
      <trkpt lat="24.98448" lon="121.60813">
        <ele>218.8</ele>
      </trkpt>
      <trkpt lat="24.984069" lon="121.60896">
        <ele>221.9</ele>
      </trkpt>
      <trkpt lat="24.98405" lon="121.60898">
        <ele>222.3</ele>
      </trkpt>
      <trkpt lat="24.98388" lon="121.60908">
        <ele>226.9</ele>
      </trkpt>
      <trkpt lat="24.98364" lon="121.60935">
        <ele>234.3</ele>
      </trkpt>
      <trkpt lat="24.98358" lon="121.60947">
        <ele>236.6</ele>
      </trkpt>
      <trkpt lat="24.98356" lon="121.60955">
        <ele>237.5</ele>
      </trkpt>
      <trkpt lat="24.98362" lon="121.60975">
        <ele>236.3</ele>
      </trkpt>
      <trkpt lat="24.98374" lon="121.61007">
        <ele>235.1</ele>
      </trkpt>
      <trkpt lat="24.98383" lon="121.61021">
        <ele>235.6</ele>
      </trkpt>
      <trkpt lat="24.98383" lon="121.61026">
        <ele>236.6</ele>
      </trkpt>
      <trkpt lat="24.9838" lon="121.6103">
        <ele>238.1</ele>
      </trkpt>
      <trkpt lat="24.98373" lon="121.61027">
        <ele>239.2</ele>
      </trkpt>
      <trkpt lat="24.98351" lon="121.60987">
        <ele>239.8</ele>
      </trkpt>
      <trkpt lat="24.9835" lon="121.60983">
        <ele>240.0</ele>
      </trkpt>
      <trkpt lat="24.98347" lon="121.60981">
        <ele>240.8</ele>
      </trkpt>
      <trkpt lat="24.98343" lon="121.60984">
        <ele>242.0</ele>
      </trkpt>
      <trkpt lat="24.98342" lon="121.60994">
        <ele>242.5</ele>
      </trkpt>
      <trkpt lat="24.98345" lon="121.6101">
        <ele>243.3</ele>
      </trkpt>
      <trkpt lat="24.9835" lon="121.61024">
        <ele>244.1</ele>
      </trkpt>
      <trkpt lat="24.98357" lon="121.61031">
        <ele>243.6</ele>
      </trkpt>
      <trkpt lat="24.98365" lon="121.61034">
        <ele>242.3</ele>
      </trkpt>
      <trkpt lat="24.9837" lon="121.61039">
        <ele>242.1</ele>
      </trkpt>
      <trkpt lat="24.98369" lon="121.61046">
        <ele>243.6</ele>
      </trkpt>
      <trkpt lat="24.98363" lon="121.61048">
        <ele>245.2</ele>
      </trkpt>
      <trkpt lat="24.98352" lon="121.61041">
        <ele>246.4</ele>
      </trkpt>
      <trkpt lat="24.98339" lon="121.61024">
        <ele>246.8</ele>
      </trkpt>
      <trkpt lat="24.98333" lon="121.61005">
        <ele>245.9</ele>
      </trkpt>
      <trkpt lat="24.98331" lon="121.60981">
        <ele>246.2</ele>
      </trkpt>
      <trkpt lat="24.98333" lon="121.60932">
        <ele>244.3</ele>
      </trkpt>
      <trkpt lat="24.98332" lon="121.6093">
        <ele>244.8</ele>
      </trkpt>
      <trkpt lat="24.98332" lon="121.6093">
        <ele>244.8</ele>
      </trkpt>
      <trkpt lat="24.98331" lon="121.60924">
        <ele>245.2</ele>
      </trkpt>
      <trkpt lat="24.98328" lon="121.60922">
        <ele>246.7</ele>
      </trkpt>
      <trkpt lat="24.983276" lon="121.609211">
        <ele>246.9</ele>
      </trkpt>
      <trkpt lat="24.98328" lon="121.60921">
        <ele>246.7</ele>
      </trkpt>
      <trkpt lat="24.98324" lon="121.60913">
        <ele>249.1</ele>
      </trkpt>
      <trkpt lat="24.98308" lon="121.60898">
        <ele>258.0</ele>
      </trkpt>
      <trkpt lat="24.98276" lon="121.60884">
        <ele>271.0</ele>
      </trkpt>
      <trkpt lat="24.98259" lon="121.6088">
        <ele>276.9</ele>
      </trkpt>
      <trkpt lat="24.98239" lon="121.60866">
        <ele>281.0</ele>
      </trkpt>
      <trkpt lat="24.98218" lon="121.6086">
        <ele>284.9</ele>
      </trkpt>
      <trkpt lat="24.98198" lon="121.60874">
        <ele>291.2</ele>
      </trkpt>
      <trkpt lat="24.98178" lon="121.60858">
        <ele>293.4</ele>
      </trkpt>
      <trkpt lat="24.98156" lon="121.60857">
        <ele>297.1</ele>
      </trkpt>
      <trkpt lat="24.98126" lon="121.60871">
        <ele>303.5</ele>
      </trkpt>
      <trkpt lat="24.98108" lon="121.60874">
        <ele>306.4</ele>
      </trkpt>
      <trkpt lat="24.98097" lon="121.60849">
        <ele>303.8</ele>
      </trkpt>
      <trkpt lat="24.98053" lon="121.60834">
        <ele>308.6</ele>
      </trkpt>
      <trkpt lat="24.98065" lon="121.60821">
        <ele>307.9</ele>
      </trkpt>
      <trkpt lat="24.98113" lon="121.60823">
        <ele>300.4</ele>
      </trkpt>
      <trkpt lat="24.98139" lon="121.60818">
        <ele>297.5</ele>
      </trkpt>
      <trkpt lat="24.98154" lon="121.60804">
        <ele>297.2</ele>
      </trkpt>
      <trkpt lat="24.98163" lon="121.60778">
        <ele>299.1</ele>
      </trkpt>
      <trkpt lat="24.98179" lon="121.60781">
        <ele>296.4</ele>
      </trkpt>
      <trkpt lat="24.98205" lon="121.60763">
        <ele>295.3</ele>
      </trkpt>
      <trkpt lat="24.98229" lon="121.60755">
        <ele>293.6</ele>
      </trkpt>
      <trkpt lat="24.98241" lon="121.60763">
        <ele>290.5</ele>
      </trkpt>
      <trkpt lat="24.98265" lon="121.60767">
        <ele>286.5</ele>
      </trkpt>
      <trkpt lat="24.98265" lon="121.60767">
        <ele>286.5</ele>
      </trkpt>
      <trkpt lat="24.98262" lon="121.60752">
        <ele>290.1</ele>
      </trkpt>
      <trkpt lat="24.98246" lon="121.60726">
        <ele>297.4</ele>
      </trkpt>
      <trkpt lat="24.98201" lon="121.60688">
        <ele>310.5</ele>
      </trkpt>
      <trkpt lat="24.98175" lon="121.60682">
        <ele>314.9</ele>
      </trkpt>
      <trkpt lat="24.98175" lon="121.60682">
        <ele>314.9</ele>
      </trkpt>
      <trkpt lat="24.98167" lon="121.6068">
        <ele>316.2</ele>
      </trkpt>
      <trkpt lat="24.9814" lon="121.60665">
        <ele>324.7</ele>
      </trkpt>
      <trkpt lat="24.98119" lon="121.60633">
        <ele>335.0</ele>
      </trkpt>
      <trkpt lat="24.98113" lon="121.60621">
        <ele>338.6</ele>
      </trkpt>
      <trkpt lat="24.9811" lon="121.6058">
        <ele>346.7</ele>
      </trkpt>
      <trkpt lat="24.98064" lon="121.60542">
        <ele>359.5</ele>
      </trkpt>
      <trkpt lat="24.98033" lon="121.60526">
        <ele>366.3</ele>
      </trkpt>
      <trkpt lat="24.98012" lon="121.60507">
        <ele>371.9</ele>
      </trkpt>
      <trkpt lat="24.98041" lon="121.60499">
        <ele>366.7</ele>
      </trkpt>
      <trkpt lat="24.98051" lon="121.6048">
        <ele>364.9</ele>
      </trkpt>
      <trkpt lat="24.98064" lon="121.60464">
        <ele>362.1</ele>
      </trkpt>
      <trkpt lat="24.9811" lon="121.60435">
        <ele>350.8</ele>
      </trkpt>
      <trkpt lat="24.98115" lon="121.60426">
        <ele>349.9</ele>
      </trkpt>
      <trkpt lat="24.98115" lon="121.60419">
        <ele>350.1</ele>
      </trkpt>
      <trkpt lat="24.98111" lon="121.60407">
        <ele>349.2</ele>
      </trkpt>
      <trkpt lat="24.98095" lon="121.60402">
        <ele>351.6</ele>
      </trkpt>
      <trkpt lat="24.98055" lon="121.60365">
        <ele>353.0</ele>
      </trkpt>
      <trkpt lat="24.98035" lon="121.60354">
        <ele>354.9</ele>
      </trkpt>
      <trkpt lat="24.98005" lon="121.60351">
        <ele>360.8</ele>
      </trkpt>
      <trkpt lat="24.97986" lon="121.60342">
        <ele>364.3</ele>
      </trkpt>
      <trkpt lat="24.97969" lon="121.60324">
        <ele>368.0</ele>
      </trkpt>
      <trkpt lat="24.97963" lon="121.60293">
        <ele>370.3</ele>
      </trkpt>
      <trkpt lat="24.97978" lon="121.60293">
        <ele>366.5</ele>
      </trkpt>
      <trkpt lat="24.97989" lon="121.60285">
        <ele>364.2</ele>
      </trkpt>
      <trkpt lat="24.97982" lon="121.60269">
        <ele>366.8</ele>
      </trkpt>
      <trkpt lat="24.97981" lon="121.60263">
        <ele>367.3</ele>
      </trkpt>
      <trkpt lat="24.98011" lon="121.60257">
        <ele>362.4</ele>
      </trkpt>
      <trkpt lat="24.98042" lon="121.60254">
        <ele>357.5</ele>
      </trkpt>
      <trkpt lat="24.98059" lon="121.60234">
        <ele>361.9</ele>
      </trkpt>
      <trkpt lat="24.98069" lon="121.60199">
        <ele>375.2</ele>
      </trkpt>
      <trkpt lat="24.98096" lon="121.60176">
        <ele>379.7</ele>
      </trkpt>
      <trkpt lat="24.98096" lon="121.60153">
        <ele>388.6</ele>
      </trkpt>
      <trkpt lat="24.98105" lon="121.60139">
        <ele>390.8</ele>
      </trkpt>
      <trkpt lat="24.98122" lon="121.60128">
        <ele>389.0</ele>
      </trkpt>
      <trkpt lat="24.98138" lon="121.60098">
        <ele>392.3</ele>
      </trkpt>
      <trkpt lat="24.981392" lon="121.600933">
        <ele>393.1</ele>
      </trkpt>
      <trkpt lat="24.9814" lon="121.6009">
        <ele>393.7</ele>
      </trkpt>
      <trkpt lat="24.98131" lon="121.60088">
        <ele>397.8</ele>
      </trkpt>
      <trkpt lat="24.98122" lon="121.6008">
        <ele>402.9</ele>
      </trkpt>
      <trkpt lat="24.98116" lon="121.60067">
        <ele>405.9</ele>
      </trkpt>
      <trkpt lat="24.9811" lon="121.60048">
        <ele>409.1</ele>
      </trkpt>
      <trkpt lat="24.98093" lon="121.6003">
        <ele>415.5</ele>
      </trkpt>
      <trkpt lat="24.98082" lon="121.60027">
        <ele>419.1</ele>
      </trkpt>
      <trkpt lat="24.98082" lon="121.60027">
        <ele>419.1</ele>
      </trkpt>
      <trkpt lat="24.98082" lon="121.60027">
        <ele>419.1</ele>
      </trkpt>
      <trkpt lat="24.98079" lon="121.60026">
        <ele>420.0</ele>
      </trkpt>
      <trkpt lat="24.98058" lon="121.60014">
        <ele>426.4</ele>
      </trkpt>
      <trkpt lat="24.98041" lon="121.59996">
        <ele>431.2</ele>
      </trkpt>
      <trkpt lat="24.98028" lon="121.59975">
        <ele>432.8</ele>
      </trkpt>
      <trkpt lat="24.98029" lon="121.59964">
        <ele>431.2</ele>
      </trkpt>
      <trkpt lat="24.98032" lon="121.59959">
        <ele>429.7</ele>
      </trkpt>
      <trkpt lat="24.98028" lon="121.59951">
        <ele>430.1</ele>
      </trkpt>
      <trkpt lat="24.98021" lon="121.59946">
        <ele>431.9</ele>
      </trkpt>
      <trkpt lat="24.98009" lon="121.59928">
        <ele>434.0</ele>
      </trkpt>
      <trkpt lat="24.97995" lon="121.59911">
        <ele>437.4</ele>
      </trkpt>
      <trkpt lat="24.97995" lon="121.59911">
        <ele>437.4</ele>
      </trkpt>
      <trkpt lat="24.9799" lon="121.59924">
        <ele>440.4</ele>
      </trkpt>
      <trkpt lat="24.97982" lon="121.59933">
        <ele>444.0</ele>
      </trkpt>
      <trkpt lat="24.9796" lon="121.59938">
        <ele>452.2</ele>
      </trkpt>
      <trkpt lat="24.97931" lon="121.5995">
        <ele>462.4</ele>
      </trkpt>
      <trkpt lat="24.97919" lon="121.59947">
        <ele>466.5</ele>
      </trkpt>
      <trkpt lat="24.97907" lon="121.59947">
        <ele>468.7</ele>
      </trkpt>
      <trkpt lat="24.97903" lon="121.59945">
        <ele>469.4</ele>
      </trkpt>
      <trkpt lat="24.97893" lon="121.59957">
        <ele>470.6</ele>
      </trkpt>
      <trkpt lat="24.9788" lon="121.59959">
        <ele>472.5</ele>
      </trkpt>
      <trkpt lat="24.9788" lon="121.59959">
        <ele>472.5</ele>
      </trkpt>
      <trkpt lat="24.97872" lon="121.59956">
        <ele>473.8</ele>
      </trkpt>
      <trkpt lat="24.97875" lon="121.59942">
        <ele>473.7</ele>
      </trkpt>
      <trkpt lat="24.97881" lon="121.59928">
        <ele>473.2</ele>
      </trkpt>
      <trkpt lat="24.97875" lon="121.59921">
        <ele>474.4</ele>
      </trkpt>
      <trkpt lat="24.97876" lon="121.59917">
        <ele>474.3</ele>
      </trkpt>
      <trkpt lat="24.97871" lon="121.5992">
        <ele>475.0</ele>
      </trkpt>
      <trkpt lat="24.97861" lon="121.5993">
        <ele>476.3</ele>
      </trkpt>
      <trkpt lat="24.97852" lon="121.59933">
        <ele>477.5</ele>
      </trkpt>
      <trkpt lat="24.97845" lon="121.59937">
        <ele>478.5</ele>
      </trkpt>
      <trkpt lat="24.97836" lon="121.5994">
        <ele>479.7</ele>
      </trkpt>
      <trkpt lat="24.97826" lon="121.59942">
        <ele>481.4</ele>
      </trkpt>
      <trkpt lat="24.97815" lon="121.59949">
        <ele>483.8</ele>
      </trkpt>
      <trkpt lat="24.97806" lon="121.59951">
        <ele>486.0</ele>
      </trkpt>
      <trkpt lat="24.97806" lon="121.59951">
        <ele>486.0</ele>
      </trkpt>
      <trkpt lat="24.97806" lon="121.59951">
        <ele>486.0</ele>
      </trkpt>
      <trkpt lat="24.97804" lon="121.59952">
        <ele>486.6</ele>
      </trkpt>
      <trkpt lat="24.97795" lon="121.59958">
        <ele>489.6</ele>
      </trkpt>
      <trkpt lat="24.97788" lon="121.5996">
        <ele>491.8</ele>
      </trkpt>
      <trkpt lat="24.97778" lon="121.59965">
        <ele>495.7</ele>
      </trkpt>
      <trkpt lat="24.97766" lon="121.59977">
        <ele>502.8</ele>
      </trkpt>
      <trkpt lat="24.9775" lon="121.59996">
        <ele>515.5</ele>
      </trkpt>
      <trkpt lat="24.97713" lon="121.59996">
        <ele>520.4</ele>
      </trkpt>
      <trkpt lat="24.9769" lon="121.59999">
        <ele>524.5</ele>
      </trkpt>
      <trkpt lat="24.97677" lon="121.60016">
        <ele>526.4</ele>
      </trkpt>
      <trkpt lat="24.9767" lon="121.60026">
        <ele>527.9</ele>
      </trkpt>
      <trkpt lat="24.97665" lon="121.60044">
        <ele>528.2</ele>
      </trkpt>
      <trkpt lat="24.97662" lon="121.60048">
        <ele>526.9</ele>
      </trkpt>
      <trkpt lat="24.97657" lon="121.60056">
        <ele>525.0</ele>
      </trkpt>
      <trkpt lat="24.97648" lon="121.6007">
        <ele>522.0</ele>
      </trkpt>
      <trkpt lat="24.97645" lon="121.60079">
        <ele>521.6</ele>
      </trkpt>
      <trkpt lat="24.9764" lon="121.60088">
        <ele>520.3</ele>
      </trkpt>
      <trkpt lat="24.97638" lon="121.60099">
        <ele>520.2</ele>
      </trkpt>
      <trkpt lat="24.97634" lon="121.60111">
        <ele>520.0</ele>
      </trkpt>
      <trkpt lat="24.97626" lon="121.60129">
        <ele>520.1</ele>
      </trkpt>
      <trkpt lat="24.97624" lon="121.60139">
        <ele>521.1</ele>
      </trkpt>
      <trkpt lat="24.9762" lon="121.60143">
        <ele>521.3</ele>
      </trkpt>
      <trkpt lat="24.9761" lon="121.6016">
        <ele>523.8</ele>
      </trkpt>
      <trkpt lat="24.97604" lon="121.60166">
        <ele>525.1</ele>
      </trkpt>
      <trkpt lat="24.97596" lon="121.6018">
        <ele>527.0</ele>
      </trkpt>
      <trkpt lat="24.97587" lon="121.60204">
        <ele>530.9</ele>
      </trkpt>
      <trkpt lat="24.97589" lon="121.60231">
        <ele>534.1</ele>
      </trkpt>
      <trkpt lat="24.97586" lon="121.60237">
        <ele>535.5</ele>
      </trkpt>
      <trkpt lat="24.97585" lon="121.60252">
        <ele>537.3</ele>
      </trkpt>
      <trkpt lat="24.97584" lon="121.60282">
        <ele>533.6</ele>
      </trkpt>
      <trkpt lat="24.97583" lon="121.60287">
        <ele>532.9</ele>
      </trkpt>
      <trkpt lat="24.97576" lon="121.60295">
        <ele>528.1</ele>
      </trkpt>
      <trkpt lat="24.97567" lon="121.60313">
        <ele>521.9</ele>
      </trkpt>
      <trkpt lat="24.97564" lon="121.60326">
        <ele>519.8</ele>
      </trkpt>
      <trkpt lat="24.97559" lon="121.60334">
        <ele>517.4</ele>
      </trkpt>
      <trkpt lat="24.97555" lon="121.60345">
        <ele>516.5</ele>
      </trkpt>
      <trkpt lat="24.97552" lon="121.60358">
        <ele>516.5</ele>
      </trkpt>
      <trkpt lat="24.9754" lon="121.60384">
        <ele>517.0</ele>
      </trkpt>
      <trkpt lat="24.97538" lon="121.60392">
        <ele>517.9</ele>
      </trkpt>
      <trkpt lat="24.97529" lon="121.60408">
        <ele>520.2</ele>
      </trkpt>
      <trkpt lat="24.97524" lon="121.60419">
        <ele>522.0</ele>
      </trkpt>
      <trkpt lat="24.97513" lon="121.60435">
        <ele>521.9</ele>
      </trkpt>
      <trkpt lat="24.97503" lon="121.60452">
        <ele>522.9</ele>
      </trkpt>
      <trkpt lat="24.97496" lon="121.6046">
        <ele>523.0</ele>
      </trkpt>
      <trkpt lat="24.97486" lon="121.60475">
        <ele>522.9</ele>
      </trkpt>
      <trkpt lat="24.97476" lon="121.60481">
        <ele>523.0</ele>
      </trkpt>
      <trkpt lat="24.97467" lon="121.60484">
        <ele>523.3</ele>
      </trkpt>
      <trkpt lat="24.97458" lon="121.6049">
        <ele>524.4</ele>
      </trkpt>
      <trkpt lat="24.97452" lon="121.60492">
        <ele>525.0</ele>
      </trkpt>
      <trkpt lat="24.97444" lon="121.605">
        <ele>527.4</ele>
      </trkpt>
      <trkpt lat="24.97435" lon="121.60512">
        <ele>526.6</ele>
      </trkpt>
      <trkpt lat="24.97431" lon="121.60523">
        <ele>525.8</ele>
      </trkpt>
      <trkpt lat="24.97427" lon="121.60531">
        <ele>525.4</ele>
      </trkpt>
      <trkpt lat="24.97427" lon="121.60538">
        <ele>524.7</ele>
      </trkpt>
      <trkpt lat="24.97434" lon="121.60551">
        <ele>522.7</ele>
      </trkpt>
      <trkpt lat="24.97432" lon="121.60555">
        <ele>522.5</ele>
      </trkpt>
      <trkpt lat="24.9743" lon="121.60555">
        <ele>522.7</ele>
      </trkpt>
      <trkpt lat="24.97429" lon="121.60561">
        <ele>522.3</ele>
      </trkpt>
      <trkpt lat="24.97435" lon="121.60573">
        <ele>520.2</ele>
      </trkpt>
      <trkpt lat="24.97435" lon="121.60584">
        <ele>518.9</ele>
      </trkpt>
      <trkpt lat="24.97432" lon="121.60596">
        <ele>515.4</ele>
      </trkpt>
      <trkpt lat="24.97437" lon="121.60598">
        <ele>514.1</ele>
      </trkpt>
      <trkpt lat="24.97441" lon="121.60597">
        <ele>513.9</ele>
      </trkpt>
      <trkpt lat="24.97451" lon="121.60587">
        <ele>515.5</ele>
      </trkpt>
      <trkpt lat="24.97454" lon="121.60589">
        <ele>514.5</ele>
      </trkpt>
      <trkpt lat="24.97448" lon="121.6061">
        <ele>509.0</ele>
      </trkpt>
      <trkpt lat="24.97449" lon="121.60618">
        <ele>506.4</ele>
      </trkpt>
      <trkpt lat="24.97453" lon="121.6062">
        <ele>505.4</ele>
      </trkpt>
      <trkpt lat="24.97455" lon="121.60623">
        <ele>504.4</ele>
      </trkpt>
      <trkpt lat="24.97448" lon="121.60636">
        <ele>501.0</ele>
      </trkpt>
      <trkpt lat="24.97444" lon="121.60641">
        <ele>499.7</ele>
      </trkpt>
      <trkpt lat="24.97442" lon="121.60643">
        <ele>499.2</ele>
      </trkpt>
      <trkpt lat="24.97438" lon="121.60648">
        <ele>497.8</ele>
      </trkpt>
      <trkpt lat="24.97438" lon="121.60653">
        <ele>496.2</ele>
      </trkpt>
      <trkpt lat="24.97435" lon="121.60657">
        <ele>495.0</ele>
      </trkpt>
      <trkpt lat="24.97438" lon="121.60662">
        <ele>493.2</ele>
      </trkpt>
      <trkpt lat="24.97438" lon="121.60667">
        <ele>491.7</ele>
      </trkpt>
      <trkpt lat="24.97437" lon="121.60671">
        <ele>491.8</ele>
      </trkpt>
      <trkpt lat="24.9744" lon="121.60682">
        <ele>491.8</ele>
      </trkpt>
      <trkpt lat="24.97442" lon="121.60694">
        <ele>491.7</ele>
      </trkpt>
      <trkpt lat="24.97446" lon="121.60701">
        <ele>491.4</ele>
      </trkpt>
      <trkpt lat="24.9745" lon="121.60714">
        <ele>491.0</ele>
      </trkpt>
      <trkpt lat="24.97448" lon="121.60727">
        <ele>491.1</ele>
      </trkpt>
      <trkpt lat="24.97445" lon="121.60736">
        <ele>491.3</ele>
      </trkpt>
      <trkpt lat="24.97443" lon="121.60758">
        <ele>492.6</ele>
      </trkpt>
      <trkpt lat="24.97444" lon="121.60773">
        <ele>494.4</ele>
      </trkpt>
      <trkpt lat="24.97443" lon="121.60795">
        <ele>497.3</ele>
      </trkpt>
      <trkpt lat="24.97443" lon="121.60803">
        <ele>498.4</ele>
      </trkpt>
      <trkpt lat="24.97445" lon="121.60815">
        <ele>499.9</ele>
      </trkpt>
      <trkpt lat="24.97472" lon="121.60834">
        <ele>503.7</ele>
      </trkpt>
      <trkpt lat="24.9748" lon="121.60853">
        <ele>505.4</ele>
      </trkpt>
      <trkpt lat="24.97483" lon="121.60881">
        <ele>507.5</ele>
      </trkpt>
      <trkpt lat="24.97483" lon="121.60881">
        <ele>507.5</ele>
      </trkpt>
      <trkpt lat="24.97478" lon="121.6092">
        <ele>509.3</ele>
      </trkpt>
      <trkpt lat="24.97467" lon="121.60968">
        <ele>504.4</ele>
      </trkpt>
      <trkpt lat="24.97467" lon="121.60979">
        <ele>503.4</ele>
      </trkpt>
      <trkpt lat="24.97462" lon="121.61001">
        <ele>502.3</ele>
      </trkpt>
      <trkpt lat="24.97458" lon="121.61008">
        <ele>502.0</ele>
      </trkpt>
      <trkpt lat="24.97444" lon="121.61013">
        <ele>503.5</ele>
      </trkpt>
      <trkpt lat="24.97427" lon="121.61027">
        <ele>503.7</ele>
      </trkpt>
      <trkpt lat="24.97426" lon="121.61033">
        <ele>502.8</ele>
      </trkpt>
      <trkpt lat="24.97441" lon="121.61049">
        <ele>498.5</ele>
      </trkpt>
      <trkpt lat="24.97446" lon="121.61056">
        <ele>496.9</ele>
      </trkpt>
      <trkpt lat="24.97448" lon="121.61063">
        <ele>495.7</ele>
      </trkpt>
      <trkpt lat="24.97449" lon="121.6107">
        <ele>494.6</ele>
      </trkpt>
      <trkpt lat="24.97452" lon="121.61079">
        <ele>493.1</ele>
      </trkpt>
      <trkpt lat="24.97465" lon="121.61104">
        <ele>492.3</ele>
      </trkpt>
      <trkpt lat="24.97467" lon="121.61113">
        <ele>492.5</ele>
      </trkpt>
      <trkpt lat="24.97463" lon="121.61121">
        <ele>493.0</ele>
      </trkpt>
      <trkpt lat="24.97456" lon="121.61128">
        <ele>493.4</ele>
      </trkpt>
      <trkpt lat="24.97443" lon="121.61135">
        <ele>493.9</ele>
      </trkpt>
      <trkpt lat="24.97434" lon="121.61143">
        <ele>494.1</ele>
      </trkpt>
      <trkpt lat="24.97429" lon="121.61161">
        <ele>494.1</ele>
      </trkpt>
      <trkpt lat="24.97424" lon="121.61166">
        <ele>494.1</ele>
      </trkpt>
      <trkpt lat="24.97408" lon="121.61173">
        <ele>491.8</ele>
      </trkpt>
      <trkpt lat="24.97402" lon="121.61182">
        <ele>490.1</ele>
      </trkpt>
      <trkpt lat="24.97401" lon="121.61188">
        <ele>489.6</ele>
      </trkpt>
      <trkpt lat="24.97402" lon="121.61195">
        <ele>489.4</ele>
      </trkpt>
      <trkpt lat="24.97392" lon="121.61199">
        <ele>487.4</ele>
      </trkpt>
      <trkpt lat="24.97379" lon="121.61202">
        <ele>485.1</ele>
      </trkpt>
      <trkpt lat="24.97373" lon="121.61206">
        <ele>484.0</ele>
      </trkpt>
      <trkpt lat="24.9737" lon="121.61215">
        <ele>483.3</ele>
      </trkpt>
      <trkpt lat="24.97366" lon="121.61231">
        <ele>482.3</ele>
      </trkpt>
      <trkpt lat="24.97366" lon="121.61254">
        <ele>481.9</ele>
      </trkpt>
      <trkpt lat="24.97361" lon="121.61263">
        <ele>481.3</ele>
      </trkpt>
      <trkpt lat="24.97355" lon="121.61269">
        <ele>480.9</ele>
      </trkpt>
      <trkpt lat="24.97349" lon="121.61272">
        <ele>480.6</ele>
      </trkpt>
      <trkpt lat="24.97345" lon="121.61277">
        <ele>480.5</ele>
      </trkpt>
      <trkpt lat="24.97344" lon="121.61283">
        <ele>480.7</ele>
      </trkpt>
      <trkpt lat="24.97345" lon="121.61283">
        <ele>480.8</ele>
      </trkpt>
      <trkpt lat="24.97346" lon="121.61303">
        <ele>481.6</ele>
      </trkpt>
      <trkpt lat="24.97341" lon="121.61313">
        <ele>482.2</ele>
      </trkpt>
      <trkpt lat="24.97331" lon="121.61319">
        <ele>482.1</ele>
      </trkpt>
      <trkpt lat="24.9731" lon="121.61321">
        <ele>474.0</ele>
      </trkpt>
      <trkpt lat="24.97303" lon="121.61325">
        <ele>471.8</ele>
      </trkpt>
      <trkpt lat="24.97298" lon="121.61332">
        <ele>470.7</ele>
      </trkpt>
      <trkpt lat="24.97294" lon="121.6134">
        <ele>469.2</ele>
      </trkpt>
      <trkpt lat="24.97293" lon="121.61354">
        <ele>468.4</ele>
      </trkpt>
      <trkpt lat="24.97295" lon="121.61368">
        <ele>468.7</ele>
      </trkpt>
      <trkpt lat="24.97299" lon="121.61376">
        <ele>469.8</ele>
      </trkpt>
      <trkpt lat="24.97311" lon="121.61382">
        <ele>473.8</ele>
      </trkpt>
      <trkpt lat="24.97314" lon="121.61387">
        <ele>474.7</ele>
      </trkpt>
      <trkpt lat="24.97314" lon="121.61392">
        <ele>474.5</ele>
      </trkpt>
      <trkpt lat="24.97321" lon="121.61396">
        <ele>476.7</ele>
      </trkpt>
      <trkpt lat="24.973308" lon="121.614089">
        <ele>479.5</ele>
      </trkpt>
      <trkpt lat="24.97337" lon="121.61417">
        <ele>479.7</ele>
      </trkpt>
      <trkpt lat="24.9734" lon="121.61425">
        <ele>478.0</ele>
      </trkpt>
      <trkpt lat="24.97332" lon="121.61449">
        <ele>473.5</ele>
      </trkpt>
      <trkpt lat="24.97336" lon="121.61452">
        <ele>473.0</ele>
      </trkpt>
      <trkpt lat="24.973372" lon="121.614523">
        <ele>472.8</ele>
      </trkpt>
      <trkpt lat="24.9734" lon="121.61453">
        <ele>472.5</ele>
      </trkpt>
      <trkpt lat="24.97356" lon="121.61447">
        <ele>472.4</ele>
      </trkpt>
      <trkpt lat="24.97353" lon="121.61454">
        <ele>471.2</ele>
      </trkpt>
      <trkpt lat="24.9734" lon="121.61465">
        <ele>470.1</ele>
      </trkpt>
      <trkpt lat="24.97331" lon="121.61479">
        <ele>467.8</ele>
      </trkpt>
      <trkpt lat="24.97317" lon="121.61494">
        <ele>464.2</ele>
      </trkpt>
      <trkpt lat="24.9726" lon="121.61531">
        <ele>460.8</ele>
      </trkpt>
      <trkpt lat="24.97259" lon="121.61542">
        <ele>460.7</ele>
      </trkpt>
      <trkpt lat="24.97254" lon="121.61548">
        <ele>461.2</ele>
      </trkpt>
      <trkpt lat="24.97222" lon="121.6155">
        <ele>458.0</ele>
      </trkpt>
      <trkpt lat="24.97211" lon="121.61552">
        <ele>456.9</ele>
      </trkpt>
      <trkpt lat="24.97202" lon="121.61557">
        <ele>456.8</ele>
      </trkpt>
      <trkpt lat="24.97198" lon="121.61565">
        <ele>458.1</ele>
      </trkpt>
      <trkpt lat="24.97154" lon="121.61592">
        <ele>458.9</ele>
      </trkpt>
      <trkpt lat="24.97144" lon="121.61603">
        <ele>457.4</ele>
      </trkpt>
      <trkpt lat="24.97111" lon="121.61664">
        <ele>462.0</ele>
      </trkpt>
      <trkpt lat="24.97111" lon="121.61679">
        <ele>465.1</ele>
      </trkpt>
      <trkpt lat="24.97107" lon="121.61689">
        <ele>466.8</ele>
      </trkpt>
      <trkpt lat="24.97098" lon="121.61696">
        <ele>468.0</ele>
      </trkpt>
      <trkpt lat="24.97087" lon="121.61715">
        <ele>473.5</ele>
      </trkpt>
      <trkpt lat="24.97082" lon="121.61716">
        <ele>474.0</ele>
      </trkpt>
      <trkpt lat="24.97076" lon="121.61722">
        <ele>475.9</ele>
      </trkpt>
      <trkpt lat="24.97066" lon="121.61727">
        <ele>477.3</ele>
      </trkpt>
      <trkpt lat="24.97052" lon="121.61729">
        <ele>477.7</ele>
      </trkpt>
      <trkpt lat="24.97036" lon="121.61746">
        <ele>481.7</ele>
      </trkpt>
      <trkpt lat="24.9703" lon="121.61759">
        <ele>485.9</ele>
      </trkpt>
      <trkpt lat="24.9703" lon="121.61768">
        <ele>489.3</ele>
      </trkpt>
      <trkpt lat="24.97023" lon="121.61775">
        <ele>491.6</ele>
      </trkpt>
      <trkpt lat="24.9702" lon="121.61782">
        <ele>494.1</ele>
      </trkpt>
      <trkpt lat="24.97021" lon="121.61795">
        <ele>499.0</ele>
      </trkpt>
      <trkpt lat="24.97017" lon="121.6181">
        <ele>504.4</ele>
      </trkpt>
      <trkpt lat="24.97014" lon="121.61843">
        <ele>516.2</ele>
      </trkpt>
      <trkpt lat="24.97006" lon="121.61851">
        <ele>518.5</ele>
      </trkpt>
      <trkpt lat="24.97002" lon="121.6186">
        <ele>521.6</ele>
      </trkpt>
      <trkpt lat="24.97009" lon="121.61878">
        <ele>527.7</ele>
      </trkpt>
      <trkpt lat="24.97006" lon="121.61897">
        <ele>534.4</ele>
      </trkpt>
      <trkpt lat="24.97008" lon="121.61916">
        <ele>540.7</ele>
      </trkpt>
      <trkpt lat="24.97006" lon="121.61934">
        <ele>542.4</ele>
      </trkpt>
      <trkpt lat="24.96995" lon="121.61958">
        <ele>547.5</ele>
      </trkpt>
      <trkpt lat="24.96991" lon="121.61977">
        <ele>550.6</ele>
      </trkpt>
      <trkpt lat="24.96987" lon="121.61979">
        <ele>552.1</ele>
      </trkpt>
      <trkpt lat="24.96988" lon="121.61987">
        <ele>552.6</ele>
      </trkpt>
      <trkpt lat="24.96969" lon="121.62011">
        <ele>559.5</ele>
      </trkpt>
      <trkpt lat="24.96964" lon="121.62024">
        <ele>560.1</ele>
      </trkpt>
      <trkpt lat="24.96961" lon="121.62041">
        <ele>559.5</ele>
      </trkpt>
      <trkpt lat="24.96965" lon="121.6204">
        <ele>558.8</ele>
      </trkpt>
      <trkpt lat="24.96967" lon="121.62045">
        <ele>558.1</ele>
      </trkpt>
      <trkpt lat="24.96958" lon="121.62047">
        <ele>559.6</ele>
      </trkpt>
      <trkpt lat="24.96952" lon="121.62056">
        <ele>559.7</ele>
      </trkpt>
      <trkpt lat="24.96952" lon="121.62056">
        <ele>559.7</ele>
      </trkpt>
      <trkpt lat="24.96952" lon="121.62052">
        <ele>560.1</ele>
      </trkpt>
      <trkpt lat="24.96945" lon="121.62038">
        <ele>563.0</ele>
      </trkpt>
      <trkpt lat="24.96944" lon="121.6202">
        <ele>565.5</ele>
      </trkpt>
      <trkpt lat="24.9694" lon="121.62006">
        <ele>568.6</ele>
      </trkpt>
      <trkpt lat="24.96924" lon="121.61987">
        <ele>572.9</ele>
      </trkpt>
      <trkpt lat="24.96924" lon="121.61987">
        <ele>572.9</ele>
      </trkpt>
      <trkpt lat="24.96912" lon="121.61975">
        <ele>574.7</ele>
      </trkpt>
      <trkpt lat="24.96906" lon="121.61966">
        <ele>574.8</ele>
      </trkpt>
      <trkpt lat="24.96895" lon="121.6196">
        <ele>576.4</ele>
      </trkpt>
      <trkpt lat="24.9687" lon="121.61953">
        <ele>580.9</ele>
      </trkpt>
      <trkpt lat="24.96853" lon="121.61964">
        <ele>585.9</ele>
      </trkpt>
      <trkpt lat="24.96817" lon="121.61964">
        <ele>599.4</ele>
      </trkpt>
      <trkpt lat="24.96786" lon="121.61975">
        <ele>618.4</ele>
      </trkpt>
      <trkpt lat="24.96777" lon="121.61986">
        <ele>624.8</ele>
      </trkpt>
      <trkpt lat="24.96762" lon="121.61997">
        <ele>634.7</ele>
      </trkpt>
      <trkpt lat="24.96759" lon="121.62003">
        <ele>636.4</ele>
      </trkpt>
      <trkpt lat="24.96751" lon="121.62012">
        <ele>639.9</ele>
      </trkpt>
      <trkpt lat="24.96749" lon="121.62018">
        <ele>639.8</ele>
      </trkpt>
      <trkpt lat="24.96751" lon="121.62021">
        <ele>638.8</ele>
      </trkpt>
      <trkpt lat="24.96751" lon="121.62029">
        <ele>637.9</ele>
      </trkpt>
      <trkpt lat="24.96753" lon="121.62038">
        <ele>635.5</ele>
      </trkpt>
      <trkpt lat="24.96745" lon="121.62041">
        <ele>636.5</ele>
      </trkpt>
      <trkpt lat="24.9674" lon="121.62036">
        <ele>636.7</ele>
      </trkpt>
      <trkpt lat="24.96739" lon="121.62027">
        <ele>637.8</ele>
      </trkpt>
      <trkpt lat="24.96733" lon="121.62031">
        <ele>636.7</ele>
      </trkpt>
      <trkpt lat="24.9673" lon="121.62031">
        <ele>636.4</ele>
      </trkpt>
      <trkpt lat="24.9673" lon="121.62026">
        <ele>637.1</ele>
      </trkpt>
      <trkpt lat="24.96724" lon="121.62031">
        <ele>635.8</ele>
      </trkpt>
      <trkpt lat="24.9672" lon="121.62032">
        <ele>635.3</ele>
      </trkpt>
      <trkpt lat="24.96719" lon="121.6201">
        <ele>638.6</ele>
      </trkpt>
      <trkpt lat="24.96717" lon="121.62003">
        <ele>639.5</ele>
      </trkpt>
      <trkpt lat="24.96716" lon="121.61999">
        <ele>639.9</ele>
      </trkpt>
      <trkpt lat="24.9672" lon="121.61989">
        <ele>639.8</ele>
      </trkpt>
      <trkpt lat="24.96721" lon="121.61983">
        <ele>639.6</ele>
      </trkpt>
      <trkpt lat="24.9672" lon="121.61981">
        <ele>639.6</ele>
      </trkpt>
      <trkpt lat="24.96719" lon="121.61977">
        <ele>639.4</ele>
      </trkpt>
      <trkpt lat="24.96717" lon="121.61969">
        <ele>639.2</ele>
      </trkpt>
      <trkpt lat="24.96714" lon="121.61961">
        <ele>639.2</ele>
      </trkpt>
      <trkpt lat="24.96714" lon="121.61952">
        <ele>639.1</ele>
      </trkpt>
      <trkpt lat="24.9671" lon="121.61933">
        <ele>639.3</ele>
      </trkpt>
      <trkpt lat="24.96708" lon="121.61915">
        <ele>639.5</ele>
      </trkpt>
      <trkpt lat="24.96704" lon="121.61905">
        <ele>640.0</ele>
      </trkpt>
      <trkpt lat="24.96704" lon="121.61901">
        <ele>639.9</ele>
      </trkpt>
      <trkpt lat="24.967" lon="121.61894">
        <ele>640.6</ele>
      </trkpt>
      <trkpt lat="24.96699" lon="121.6189">
        <ele>640.8</ele>
      </trkpt>
      <trkpt lat="24.96697" lon="121.61884">
        <ele>641.2</ele>
      </trkpt>
      <trkpt lat="24.96697" lon="121.61876">
        <ele>641.1</ele>
      </trkpt>
      <trkpt lat="24.96691" lon="121.61852">
        <ele>642.9</ele>
      </trkpt>
      <trkpt lat="24.96684" lon="121.61836">
        <ele>645.5</ele>
      </trkpt>
      <trkpt lat="24.96682" lon="121.6181">
        <ele>639.9</ele>
      </trkpt>
      <trkpt lat="24.9668" lon="121.61805">
        <ele>639.2</ele>
      </trkpt>
      <trkpt lat="24.96685" lon="121.61794">
        <ele>634.8</ele>
      </trkpt>
      <trkpt lat="24.96672" lon="121.61792">
        <ele>637.7</ele>
      </trkpt>
      <trkpt lat="24.96662" lon="121.61787">
        <ele>635.4</ele>
      </trkpt>
      <trkpt lat="24.96683" lon="121.61763">
        <ele>627.0</ele>
      </trkpt>
      <trkpt lat="24.96701" lon="121.61756">
        <ele>622.0</ele>
      </trkpt>
      <trkpt lat="24.96708" lon="121.6175">
        <ele>619.6</ele>
      </trkpt>
      <trkpt lat="24.96728" lon="121.61726">
        <ele>610.5</ele>
      </trkpt>
      <trkpt lat="24.96734" lon="121.61711">
        <ele>606.5</ele>
      </trkpt>
      <trkpt lat="24.96737" lon="121.61705">
        <ele>605.0</ele>
      </trkpt>
      <trkpt lat="24.96742" lon="121.61689">
        <ele>601.3</ele>
      </trkpt>
      <trkpt lat="24.96741" lon="121.61685">
        <ele>600.5</ele>
      </trkpt>
      <trkpt lat="24.96735" lon="121.61671">
        <ele>597.3</ele>
      </trkpt>
      <trkpt lat="24.96728" lon="121.61662">
        <ele>595.2</ele>
      </trkpt>
      <trkpt lat="24.9671" lon="121.61653">
        <ele>594.0</ele>
      </trkpt>
      <trkpt lat="24.96706" lon="121.61646">
        <ele>593.6</ele>
      </trkpt>
      <trkpt lat="24.967" lon="121.61642">
        <ele>593.8</ele>
      </trkpt>
      <trkpt lat="24.96698" lon="121.61634">
        <ele>593.7</ele>
      </trkpt>
      <trkpt lat="24.96697" lon="121.61623">
        <ele>593.6</ele>
      </trkpt>
      <trkpt lat="24.96697" lon="121.61612">
        <ele>593.4</ele>
      </trkpt>
      <trkpt lat="24.96695" lon="121.61607">
        <ele>593.7</ele>
      </trkpt>
      <trkpt lat="24.96694" lon="121.61602">
        <ele>593.9</ele>
      </trkpt>
      <trkpt lat="24.96687" lon="121.6159">
        <ele>596.0</ele>
      </trkpt>
      <trkpt lat="24.96671" lon="121.6157">
        <ele>601.5</ele>
      </trkpt>
      <trkpt lat="24.96662" lon="121.61561">
        <ele>602.7</ele>
      </trkpt>
      <trkpt lat="24.96658" lon="121.61552">
        <ele>602.5</ele>
      </trkpt>
      <trkpt lat="24.96654" lon="121.61545">
        <ele>602.5</ele>
      </trkpt>
      <trkpt lat="24.96646" lon="121.61542">
        <ele>602.2</ele>
      </trkpt>
      <trkpt lat="24.96644" lon="121.61539">
        <ele>602.3</ele>
      </trkpt>
      <trkpt lat="24.96641" lon="121.61534">
        <ele>602.5</ele>
      </trkpt>
      <trkpt lat="24.96632" lon="121.6153">
        <ele>602.6</ele>
      </trkpt>
      <trkpt lat="24.96629" lon="121.61525">
        <ele>602.9</ele>
      </trkpt>
      <trkpt lat="24.96606" lon="121.61514">
        <ele>604.2</ele>
      </trkpt>
      <trkpt lat="24.96595" lon="121.61504">
        <ele>605.9</ele>
      </trkpt>
      <trkpt lat="24.96592" lon="121.61495">
        <ele>605.3</ele>
      </trkpt>
      <trkpt lat="24.96591" lon="121.61471">
        <ele>599.3</ele>
      </trkpt>
      <trkpt lat="24.96612" lon="121.61452">
        <ele>593.1</ele>
      </trkpt>
      <trkpt lat="24.96622" lon="121.61446">
        <ele>590.9</ele>
      </trkpt>
      <trkpt lat="24.96635" lon="121.61439">
        <ele>588.2</ele>
      </trkpt>
      <trkpt lat="24.96643" lon="121.6143">
        <ele>585.3</ele>
      </trkpt>
      <trkpt lat="24.96645" lon="121.61407">
        <ele>579.4</ele>
      </trkpt>
      <trkpt lat="24.96641" lon="121.61393">
        <ele>576.8</ele>
      </trkpt>
      <trkpt lat="24.96641" lon="121.61386">
        <ele>575.3</ele>
      </trkpt>
      <trkpt lat="24.96638" lon="121.61379">
        <ele>574.3</ele>
      </trkpt>
      <trkpt lat="24.96635" lon="121.61368">
        <ele>572.5</ele>
      </trkpt>
      <trkpt lat="24.96631" lon="121.61361">
        <ele>571.9</ele>
      </trkpt>
      <trkpt lat="24.96631" lon="121.61349">
        <ele>569.6</ele>
      </trkpt>
      <trkpt lat="24.96628" lon="121.61339">
        <ele>568.3</ele>
      </trkpt>
      <trkpt lat="24.96619" lon="121.61328">
        <ele>568.7</ele>
      </trkpt>
      <trkpt lat="24.96614" lon="121.61316">
        <ele>568.3</ele>
      </trkpt>
      <trkpt lat="24.96613" lon="121.61304">
        <ele>567.0</ele>
      </trkpt>
      <trkpt lat="24.96612" lon="121.613">
        <ele>566.8</ele>
      </trkpt>
      <trkpt lat="24.96611" lon="121.6129">
        <ele>565.8</ele>
      </trkpt>
      <trkpt lat="24.96606" lon="121.61286">
        <ele>567.0</ele>
      </trkpt>
      <trkpt lat="24.96603" lon="121.61278">
        <ele>567.1</ele>
      </trkpt>
      <trkpt lat="24.966" lon="121.61276">
        <ele>567.9</ele>
      </trkpt>
      <trkpt lat="24.96596" lon="121.61271">
        <ele>568.9</ele>
      </trkpt>
      <trkpt lat="24.96591" lon="121.61266">
        <ele>570.3</ele>
      </trkpt>
      <trkpt lat="24.96586" lon="121.61264">
        <ele>572.0</ele>
      </trkpt>
      <trkpt lat="24.96582" lon="121.61254">
        <ele>572.2</ele>
      </trkpt>
      <trkpt lat="24.96574" lon="121.61245">
        <ele>570.7</ele>
      </trkpt>
      <trkpt lat="24.96565" lon="121.6124">
        <ele>569.6</ele>
      </trkpt>
      <trkpt lat="24.96557" lon="121.6123">
        <ele>568.4</ele>
      </trkpt>
      <trkpt lat="24.9654" lon="121.61196">
        <ele>567.0</ele>
      </trkpt>
      <trkpt lat="24.96537" lon="121.61154">
        <ele>562.3</ele>
      </trkpt>
      <trkpt lat="24.96524" lon="121.61111">
        <ele>550.4</ele>
      </trkpt>
      <trkpt lat="24.96517" lon="121.611">
        <ele>548.6</ele>
      </trkpt>
      <trkpt lat="24.96517" lon="121.61094">
        <ele>546.8</ele>
      </trkpt>
      <trkpt lat="24.96511" lon="121.6109">
        <ele>547.1</ele>
      </trkpt>
      <trkpt lat="24.96502" lon="121.61068">
        <ele>543.0</ele>
      </trkpt>
      <trkpt lat="24.96479" lon="121.61023">
        <ele>529.7</ele>
      </trkpt>
      <trkpt lat="24.96474" lon="121.6102">
        <ele>529.0</ele>
      </trkpt>
      <trkpt lat="24.96471" lon="121.61013">
        <ele>528.1</ele>
      </trkpt>
      <trkpt lat="24.96459" lon="121.61003">
        <ele>527.6</ele>
      </trkpt>
      <trkpt lat="24.9645" lon="121.60992">
        <ele>527.9</ele>
      </trkpt>
      <trkpt lat="24.96445" lon="121.60987">
        <ele>528.4</ele>
      </trkpt>
      <trkpt lat="24.96441" lon="121.60981">
        <ele>529.0</ele>
      </trkpt>
      <trkpt lat="24.96436" lon="121.60968">
        <ele>530.2</ele>
      </trkpt>
      <trkpt lat="24.96428" lon="121.60957">
        <ele>532.8</ele>
      </trkpt>
      <trkpt lat="24.96421" lon="121.60949">
        <ele>535.7</ele>
      </trkpt>
      <trkpt lat="24.96412" lon="121.60941">
        <ele>537.3</ele>
      </trkpt>
      <trkpt lat="24.96405" lon="121.60931">
        <ele>537.7</ele>
      </trkpt>
      <trkpt lat="24.96381" lon="121.60906">
        <ele>534.0</ele>
      </trkpt>
      <trkpt lat="24.96374" lon="121.60901">
        <ele>532.1</ele>
      </trkpt>
      <trkpt lat="24.96365" lon="121.609">
        <ele>531.4</ele>
      </trkpt>
      <trkpt lat="24.96357" lon="121.6089">
        <ele>529.0</ele>
      </trkpt>
      <trkpt lat="24.96346" lon="121.60875">
        <ele>526.4</ele>
      </trkpt>
      <trkpt lat="24.96341" lon="121.60867">
        <ele>525.4</ele>
      </trkpt>
      <trkpt lat="24.96324" lon="121.60843">
        <ele>520.7</ele>
      </trkpt>
      <trkpt lat="24.96317" lon="121.60836">
        <ele>518.3</ele>
      </trkpt>
      <trkpt lat="24.96309" lon="121.6083">
        <ele>515.8</ele>
      </trkpt>
      <trkpt lat="24.96298" lon="121.60825">
        <ele>512.8</ele>
      </trkpt>
      <trkpt lat="24.96296" lon="121.60821">
        <ele>512.0</ele>
      </trkpt>
      <trkpt lat="24.96296" lon="121.60816">
        <ele>511.5</ele>
      </trkpt>
      <trkpt lat="24.96298" lon="121.60812">
        <ele>511.6</ele>
      </trkpt>
      <trkpt lat="24.96292" lon="121.60804">
        <ele>509.8</ele>
      </trkpt>
      <trkpt lat="24.96292" lon="121.60804">
        <ele>509.8</ele>
      </trkpt>
      <trkpt lat="24.96295" lon="121.607994">
        <ele>509.9</ele>
      </trkpt>
      <trkpt lat="24.96296" lon="121.60798">
        <ele>510.0</ele>
      </trkpt>
      <trkpt lat="24.96306" lon="121.60797">
        <ele>511.5</ele>
      </trkpt>
      <trkpt lat="24.96314" lon="121.60801">
        <ele>513.3</ele>
      </trkpt>
      <trkpt lat="24.96318" lon="121.60806">
        <ele>514.6</ele>
      </trkpt>
      <trkpt lat="24.96331" lon="121.60816">
        <ele>518.6</ele>
      </trkpt>
      <trkpt lat="24.96353" lon="121.60823">
        <ele>515.8</ele>
      </trkpt>
      <trkpt lat="24.96372" lon="121.60832">
        <ele>513.8</ele>
      </trkpt>
      <trkpt lat="24.96377" lon="121.60838">
        <ele>514.4</ele>
      </trkpt>
      <trkpt lat="24.9639" lon="121.60844">
        <ele>514.0</ele>
      </trkpt>
      <trkpt lat="24.96397" lon="121.60846">
        <ele>513.6</ele>
      </trkpt>
      <trkpt lat="24.96404" lon="121.60845">
        <ele>512.1</ele>
      </trkpt>
      <trkpt lat="24.96409" lon="121.60847">
        <ele>512.1</ele>
      </trkpt>
      <trkpt lat="24.96435" lon="121.60837">
        <ele>500.7</ele>
      </trkpt>
      <trkpt lat="24.96435" lon="121.60832">
        <ele>498.8</ele>
      </trkpt>
      <trkpt lat="24.96429" lon="121.60828">
        <ele>499.2</ele>
      </trkpt>
      <trkpt lat="24.96421" lon="121.60827">
        <ele>501.3</ele>
      </trkpt>
      <trkpt lat="24.96417" lon="121.60828">
        <ele>502.9</ele>
      </trkpt>
      <trkpt lat="24.96412" lon="121.60827">
        <ele>503.7</ele>
      </trkpt>
      <trkpt lat="24.96404" lon="121.60822">
        <ele>503.7</ele>
      </trkpt>
      <trkpt lat="24.96387" lon="121.60805">
        <ele>502.6</ele>
      </trkpt>
      <trkpt lat="24.96378" lon="121.60801">
        <ele>503.9</ele>
      </trkpt>
      <trkpt lat="24.96373" lon="121.60795">
        <ele>503.7</ele>
      </trkpt>
      <trkpt lat="24.96368" lon="121.6079">
        <ele>504.0</ele>
      </trkpt>
      <trkpt lat="24.96368" lon="121.60777">
        <ele>500.7</ele>
      </trkpt>
      <trkpt lat="24.9637" lon="121.60767">
        <ele>497.4</ele>
      </trkpt>
      <trkpt lat="24.9637" lon="121.60757">
        <ele>494.8</ele>
      </trkpt>
      <trkpt lat="24.96376" lon="121.6073">
        <ele>490.1</ele>
      </trkpt>
      <trkpt lat="24.96385" lon="121.60716">
        <ele>485.3</ele>
      </trkpt>
      <trkpt lat="24.96402" lon="121.60708">
        <ele>476.4</ele>
      </trkpt>
      <trkpt lat="24.96406" lon="121.60704">
        <ele>474.0</ele>
      </trkpt>
      <trkpt lat="24.96407" lon="121.60685">
        <ele>471.6</ele>
      </trkpt>
      <trkpt lat="24.96411" lon="121.60676">
        <ele>468.4</ele>
      </trkpt>
      <trkpt lat="24.96422" lon="121.60664">
        <ele>462.3</ele>
      </trkpt>
      <trkpt lat="24.96428" lon="121.60662">
        <ele>460.4</ele>
      </trkpt>
      <trkpt lat="24.96429" lon="121.60659">
        <ele>460.1</ele>
      </trkpt>
      <trkpt lat="24.96427" lon="121.60655">
        <ele>460.8</ele>
      </trkpt>
      <trkpt lat="24.96414" lon="121.60649">
        <ele>465.8</ele>
      </trkpt>
      <trkpt lat="24.96407" lon="121.60641">
        <ele>469.9</ele>
      </trkpt>
      <trkpt lat="24.96402" lon="121.60629">
        <ele>472.8</ele>
      </trkpt>
      <trkpt lat="24.96405" lon="121.60611">
        <ele>471.2</ele>
      </trkpt>
      <trkpt lat="24.96412" lon="121.60604">
        <ele>467.3</ele>
      </trkpt>
      <trkpt lat="24.96424" lon="121.60598">
        <ele>462.4</ele>
      </trkpt>
      <trkpt lat="24.96429" lon="121.60595">
        <ele>460.7</ele>
      </trkpt>
      <trkpt lat="24.96431" lon="121.60585">
        <ele>460.2</ele>
      </trkpt>
      <trkpt lat="24.96428" lon="121.60558">
        <ele>466.7</ele>
      </trkpt>
      <trkpt lat="24.96431" lon="121.60556">
        <ele>466.2</ele>
      </trkpt>
      <trkpt lat="24.96434" lon="121.60559">
        <ele>464.5</ele>
      </trkpt>
      <trkpt lat="24.96435" lon="121.60563">
        <ele>463.3</ele>
      </trkpt>
      <trkpt lat="24.96436" lon="121.60574">
        <ele>460.6</ele>
      </trkpt>
      <trkpt lat="24.96442" lon="121.60593">
        <ele>456.4</ele>
      </trkpt>
      <trkpt lat="24.96444" lon="121.60611">
        <ele>455.6</ele>
      </trkpt>
      <trkpt lat="24.96448" lon="121.60617">
        <ele>454.2</ele>
      </trkpt>
      <trkpt lat="24.96456" lon="121.60623">
        <ele>451.5</ele>
      </trkpt>
      <trkpt lat="24.96472" lon="121.60622">
        <ele>446.2</ele>
      </trkpt>
      <trkpt lat="24.96485" lon="121.60624">
        <ele>441.9</ele>
      </trkpt>
      <trkpt lat="24.9649" lon="121.60627">
        <ele>440.3</ele>
      </trkpt>
      <trkpt lat="24.9649" lon="121.60627">
        <ele>440.3</ele>
      </trkpt>
      <trkpt lat="24.9649" lon="121.60627">
        <ele>440.3</ele>
      </trkpt>
      <trkpt lat="24.96505" lon="121.60635">
        <ele>435.7</ele>
      </trkpt>
      <trkpt lat="24.96513" lon="121.60637">
        <ele>433.6</ele>
      </trkpt>
      <trkpt lat="24.96523" lon="121.60644">
        <ele>430.9</ele>
      </trkpt>
      <trkpt lat="24.96525" lon="121.60649">
        <ele>430.3</ele>
      </trkpt>
      <trkpt lat="24.96517" lon="121.6067">
        <ele>432.9</ele>
      </trkpt>
      <trkpt lat="24.96519" lon="121.60678">
        <ele>433.6</ele>
      </trkpt>
      <trkpt lat="24.96528" lon="121.60682">
        <ele>431.8</ele>
      </trkpt>
      <trkpt lat="24.9653" lon="121.6068">
        <ele>430.9</ele>
      </trkpt>
      <trkpt lat="24.9653" lon="121.60665">
        <ele>428.7</ele>
      </trkpt>
      <trkpt lat="24.96542" lon="121.60653">
        <ele>425.7</ele>
      </trkpt>
      <trkpt lat="24.96549" lon="121.60641">
        <ele>424.2</ele>
      </trkpt>
      <trkpt lat="24.96549" lon="121.60633">
        <ele>424.4</ele>
      </trkpt>
      <trkpt lat="24.96554" lon="121.60618">
        <ele>423.6</ele>
      </trkpt>
      <trkpt lat="24.9656" lon="121.60616">
        <ele>422.2</ele>
      </trkpt>
      <trkpt lat="24.96571" lon="121.60617">
        <ele>419.4</ele>
      </trkpt>
      <trkpt lat="24.96583" lon="121.60623">
        <ele>416.2</ele>
      </trkpt>
      <trkpt lat="24.96594" lon="121.60621">
        <ele>416.5</ele>
      </trkpt>
      <trkpt lat="24.96599" lon="121.60617">
        <ele>416.9</ele>
      </trkpt>
      <trkpt lat="24.96601" lon="121.60614">
        <ele>417.2</ele>
      </trkpt>
      <trkpt lat="24.96602" lon="121.60594">
        <ele>418.9</ele>
      </trkpt>
      <trkpt lat="24.96613" lon="121.60585">
        <ele>420.7</ele>
      </trkpt>
      <trkpt lat="24.96623" lon="121.60586">
        <ele>421.5</ele>
      </trkpt>
      <trkpt lat="24.96625" lon="121.60592">
        <ele>420.9</ele>
      </trkpt>
      <trkpt lat="24.9662" lon="121.60613">
        <ele>418.1</ele>
      </trkpt>
      <trkpt lat="24.96619" lon="121.60639">
        <ele>415.0</ele>
      </trkpt>
      <trkpt lat="24.96619" lon="121.60654">
        <ele>413.3</ele>
      </trkpt>
      <trkpt lat="24.9663" lon="121.60683">
        <ele>411.0</ele>
      </trkpt>
      <trkpt lat="24.96651" lon="121.60703">
        <ele>406.8</ele>
      </trkpt>
      <trkpt lat="24.96669" lon="121.60719">
        <ele>401.4</ele>
      </trkpt>
      <trkpt lat="24.96685" lon="121.60738">
        <ele>397.1</ele>
      </trkpt>
      <trkpt lat="24.96698" lon="121.60745">
        <ele>394.4</ele>
      </trkpt>
      <trkpt lat="24.96724" lon="121.60748">
        <ele>390.7</ele>
      </trkpt>
      <trkpt lat="24.96733" lon="121.60752">
        <ele>389.2</ele>
      </trkpt>
      <trkpt lat="24.96742" lon="121.60759">
        <ele>388.4</ele>
      </trkpt>
      <trkpt lat="24.96749" lon="121.60766">
        <ele>387.5</ele>
      </trkpt>
      <trkpt lat="24.96762" lon="121.60784">
        <ele>386.3</ele>
      </trkpt>
      <trkpt lat="24.96765" lon="121.60792">
        <ele>385.7</ele>
      </trkpt>
      <trkpt lat="24.96772" lon="121.60798">
        <ele>384.3</ele>
      </trkpt>
      <trkpt lat="24.96833" lon="121.60829">
        <ele>365.3</ele>
      </trkpt>
      <trkpt lat="24.96858" lon="121.6084">
        <ele>363.5</ele>
      </trkpt>
      <trkpt lat="24.96864" lon="121.60845">
        <ele>364.0</ele>
      </trkpt>
      <trkpt lat="24.96882" lon="121.60845">
        <ele>362.5</ele>
      </trkpt>
      <trkpt lat="24.96882" lon="121.60845">
        <ele>362.5</ele>
      </trkpt>
      <trkpt lat="24.96926" lon="121.60859">
        <ele>360.5</ele>
      </trkpt>
      <trkpt lat="24.96974" lon="121.60865">
        <ele>353.7</ele>
      </trkpt>
      <trkpt lat="24.96991" lon="121.60869">
        <ele>351.6</ele>
      </trkpt>
      <trkpt lat="24.97001" lon="121.60869">
        <ele>350.3</ele>
      </trkpt>
      <trkpt lat="24.97006" lon="121.60847">
        <ele>348.1</ele>
      </trkpt>
      <trkpt lat="24.97013" lon="121.6083">
        <ele>347.7</ele>
      </trkpt>
      <trkpt lat="24.9703" lon="121.60799">
        <ele>351.0</ele>
      </trkpt>
      <trkpt lat="24.97032" lon="121.60792">
        <ele>351.4</ele>
      </trkpt>
      <trkpt lat="24.97032" lon="121.60783">
        <ele>351.3</ele>
      </trkpt>
      <trkpt lat="24.97026" lon="121.60763">
        <ele>349.4</ele>
      </trkpt>
      <trkpt lat="24.97029" lon="121.60732">
        <ele>350.3</ele>
      </trkpt>
      <trkpt lat="24.97028" lon="121.60718">
        <ele>350.2</ele>
      </trkpt>
      <trkpt lat="24.97031" lon="121.60693">
        <ele>351.2</ele>
      </trkpt>
      <trkpt lat="24.97035" lon="121.60668">
        <ele>352.0</ele>
      </trkpt>
      <trkpt lat="24.97036" lon="121.60651">
        <ele>348.8</ele>
      </trkpt>
      <trkpt lat="24.97036" lon="121.60643">
        <ele>347.1</ele>
      </trkpt>
      <trkpt lat="24.97036" lon="121.60643">
        <ele>347.1</ele>
      </trkpt>
      <trkpt lat="24.97036" lon="121.60642">
        <ele>346.9</ele>
      </trkpt>
      <trkpt lat="24.97039" lon="121.60639">
        <ele>346.7</ele>
      </trkpt>
      <trkpt lat="24.97042" lon="121.60625">
        <ele>344.3</ele>
      </trkpt>
      <trkpt lat="24.97053" lon="121.60608">
        <ele>343.0</ele>
      </trkpt>
      <trkpt lat="24.97066" lon="121.60588">
        <ele>341.9</ele>
      </trkpt>
      <trkpt lat="24.97071" lon="121.60567">
        <ele>339.5</ele>
      </trkpt>
      <trkpt lat="24.97074" lon="121.60547">
        <ele>336.6</ele>
      </trkpt>
      <trkpt lat="24.97082" lon="121.60539">
        <ele>336.3</ele>
      </trkpt>
      <trkpt lat="24.97093" lon="121.60517">
        <ele>338.0</ele>
      </trkpt>
      <trkpt lat="24.97094" lon="121.6051">
        <ele>337.1</ele>
      </trkpt>
      <trkpt lat="24.97103" lon="121.605">
        <ele>340.1</ele>
      </trkpt>
      <trkpt lat="24.97113" lon="121.60475">
        <ele>339.0</ele>
      </trkpt>
      <trkpt lat="24.97122" lon="121.60467">
        <ele>341.5</ele>
      </trkpt>
      <trkpt lat="24.97125" lon="121.60459">
        <ele>340.7</ele>
      </trkpt>
      <trkpt lat="24.97131" lon="121.60455">
        <ele>342.5</ele>
      </trkpt>
      <trkpt lat="24.97137" lon="121.60449">
        <ele>343.7</ele>
      </trkpt>
      <trkpt lat="24.97133" lon="121.60447">
        <ele>341.1</ele>
      </trkpt>
      <trkpt lat="24.97134" lon="121.60441">
        <ele>339.8</ele>
      </trkpt>
      <trkpt lat="24.97131" lon="121.60429">
        <ele>334.8</ele>
      </trkpt>
      <trkpt lat="24.97134" lon="121.60418">
        <ele>332.9</ele>
      </trkpt>
      <trkpt lat="24.97138" lon="121.60411">
        <ele>332.7</ele>
      </trkpt>
      <trkpt lat="24.97156" lon="121.60403">
        <ele>337.7</ele>
      </trkpt>
      <trkpt lat="24.97172" lon="121.60387">
        <ele>340.1</ele>
      </trkpt>
      <trkpt lat="24.97176" lon="121.60382">
        <ele>341.2</ele>
      </trkpt>
      <trkpt lat="24.97175" lon="121.60376">
        <ele>338.2</ele>
      </trkpt>
      <trkpt lat="24.97173" lon="121.6037">
        <ele>334.4</ele>
      </trkpt>
      <trkpt lat="24.97178" lon="121.60353">
        <ele>331.5</ele>
      </trkpt>
      <trkpt lat="24.97186" lon="121.60343">
        <ele>333.3</ele>
      </trkpt>
      <trkpt lat="24.97189" lon="121.60324">
        <ele>327.8</ele>
      </trkpt>
      <trkpt lat="24.97218" lon="121.60296">
        <ele>333.4</ele>
      </trkpt>
      <trkpt lat="24.97224" lon="121.60287">
        <ele>332.3</ele>
      </trkpt>
      <trkpt lat="24.97234" lon="121.60279">
        <ele>333.6</ele>
      </trkpt>
      <trkpt lat="24.97237" lon="121.60271">
        <ele>330.8</ele>
      </trkpt>
      <trkpt lat="24.97247" lon="121.60268">
        <ele>334.1</ele>
      </trkpt>
      <trkpt lat="24.97257" lon="121.6027">
        <ele>340.9</ele>
      </trkpt>
      <trkpt lat="24.9728" lon="121.60264">
        <ele>350.8</ele>
      </trkpt>
      <trkpt lat="24.97294" lon="121.60262">
        <ele>357.8</ele>
      </trkpt>
      <trkpt lat="24.97295" lon="121.60257">
        <ele>355.5</ele>
      </trkpt>
      <trkpt lat="24.97292" lon="121.60254">
        <ele>352.0</ele>
      </trkpt>
      <trkpt lat="24.97292" lon="121.60241">
        <ele>347.4</ele>
      </trkpt>
      <trkpt lat="24.97285" lon="121.60224">
        <ele>339.0</ele>
      </trkpt>
      <trkpt lat="24.97286" lon="121.60195">
        <ele>332.2</ele>
      </trkpt>
      <trkpt lat="24.97282" lon="121.60176">
        <ele>325.3</ele>
      </trkpt>
      <trkpt lat="24.97285" lon="121.60159">
        <ele>321.9</ele>
      </trkpt>
      <trkpt lat="24.97297" lon="121.60147">
        <ele>323.9</ele>
      </trkpt>
      <trkpt lat="24.97307" lon="121.60144">
        <ele>328.0</ele>
      </trkpt>
      <trkpt lat="24.97317" lon="121.60142">
        <ele>332.4</ele>
      </trkpt>
      <trkpt lat="24.97318" lon="121.6014">
        <ele>332.2</ele>
      </trkpt>
      <trkpt lat="24.97321" lon="121.60126">
        <ele>328.7</ele>
      </trkpt>
      <trkpt lat="24.97326" lon="121.60115">
        <ele>327.1</ele>
      </trkpt>
      <trkpt lat="24.97336" lon="121.60109">
        <ele>330.1</ele>
      </trkpt>
      <trkpt lat="24.9735" lon="121.60096">
        <ele>333.1</ele>
      </trkpt>
      <trkpt lat="24.97353" lon="121.60084">
        <ele>330.1</ele>
      </trkpt>
      <trkpt lat="24.97362" lon="121.60059">
        <ele>330.5</ele>
      </trkpt>
      <trkpt lat="24.97364" lon="121.6005">
        <ele>329.9</ele>
      </trkpt>
      <trkpt lat="24.97364" lon="121.6005">
        <ele>329.9</ele>
      </trkpt>
      <trkpt lat="24.97368" lon="121.60031">
        <ele>328.7</ele>
      </trkpt>
      <trkpt lat="24.97361" lon="121.60022">
        <ele>323.2</ele>
      </trkpt>
      <trkpt lat="24.97359" lon="121.60016">
        <ele>321.1</ele>
      </trkpt>
      <trkpt lat="24.97364" lon="121.60001">
        <ele>321.1</ele>
      </trkpt>
      <trkpt lat="24.97365" lon="121.5999">
        <ele>320.2</ele>
      </trkpt>
      <trkpt lat="24.97357" lon="121.5998">
        <ele>314.6</ele>
      </trkpt>
      <trkpt lat="24.97352" lon="121.59966">
        <ele>310.3</ele>
      </trkpt>
      <trkpt lat="24.97355" lon="121.59959">
        <ele>311.0</ele>
      </trkpt>
      <trkpt lat="24.97363" lon="121.59951">
        <ele>314.0</ele>
      </trkpt>
      <trkpt lat="24.97366" lon="121.59941">
        <ele>314.2</ele>
      </trkpt>
      <trkpt lat="24.97362" lon="121.59929">
        <ele>310.7</ele>
      </trkpt>
      <trkpt lat="24.97367" lon="121.59922">
        <ele>312.1</ele>
      </trkpt>
      <trkpt lat="24.97378" lon="121.59917">
        <ele>316.4</ele>
      </trkpt>
      <trkpt lat="24.974" lon="121.59903">
        <ele>322.7</ele>
      </trkpt>
      <trkpt lat="24.97402" lon="121.59896">
        <ele>321.6</ele>
      </trkpt>
      <trkpt lat="24.97402" lon="121.59893">
        <ele>320.8</ele>
      </trkpt>
      <trkpt lat="24.97406" lon="121.59877">
        <ele>318.1</ele>
      </trkpt>
      <trkpt lat="24.97407" lon="121.59851">
        <ele>311.2</ele>
      </trkpt>
      <trkpt lat="24.97397" lon="121.59827">
        <ele>301.1</ele>
      </trkpt>
      <trkpt lat="24.97409" lon="121.59807">
        <ele>301.0</ele>
      </trkpt>
      <trkpt lat="24.97408" lon="121.59801">
        <ele>299.3</ele>
      </trkpt>
      <trkpt lat="24.97411" lon="121.5979">
        <ele>297.8</ele>
      </trkpt>
      <trkpt lat="24.97416" lon="121.59789">
        <ele>299.2</ele>
      </trkpt>
      <trkpt lat="24.97421" lon="121.59786">
        <ele>300.8</ele>
      </trkpt>
      <trkpt lat="24.97424" lon="121.59777">
        <ele>300.1</ele>
      </trkpt>
      <trkpt lat="24.9743" lon="121.59774">
        <ele>302.4</ele>
      </trkpt>
      <trkpt lat="24.97434" lon="121.59769">
        <ele>303.2</ele>
      </trkpt>
      <trkpt lat="24.97448" lon="121.59745">
        <ele>305.6</ele>
      </trkpt>
      <trkpt lat="24.97458" lon="121.5972">
        <ele>309.9</ele>
      </trkpt>
      <trkpt lat="24.97459" lon="121.59711">
        <ele>310.2</ele>
      </trkpt>
      <trkpt lat="24.97457" lon="121.59701">
        <ele>308.8</ele>
      </trkpt>
      <trkpt lat="24.97451" lon="121.5968">
        <ele>304.6</ele>
      </trkpt>
      <trkpt lat="24.9745" lon="121.59672">
        <ele>303.6</ele>
      </trkpt>
      <trkpt lat="24.97445" lon="121.59664">
        <ele>300.0</ele>
      </trkpt>
      <trkpt lat="24.9744" lon="121.59654">
        <ele>295.9</ele>
      </trkpt>
      <trkpt lat="24.97441" lon="121.59645">
        <ele>295.5</ele>
      </trkpt>
      <trkpt lat="24.97452" lon="121.59624">
        <ele>299.3</ele>
      </trkpt>
      <trkpt lat="24.97449" lon="121.59602">
        <ele>295.0</ele>
      </trkpt>
      <trkpt lat="24.9745" lon="121.59593">
        <ele>294.4</ele>
      </trkpt>
      <trkpt lat="24.97453" lon="121.59587">
        <ele>295.2</ele>
      </trkpt>
      <trkpt lat="24.97459" lon="121.59585">
        <ele>298.1</ele>
      </trkpt>
      <trkpt lat="24.97486" lon="121.59549">
        <ele>300.7</ele>
      </trkpt>
      <trkpt lat="24.97498" lon="121.59543">
        <ele>305.8</ele>
      </trkpt>
      <trkpt lat="24.97505" lon="121.59536">
        <ele>308.5</ele>
      </trkpt>
      <trkpt lat="24.97515" lon="121.59523">
        <ele>312.1</ele>
      </trkpt>
      <trkpt lat="24.97518" lon="121.59515">
        <ele>311.9</ele>
      </trkpt>
      <trkpt lat="24.97522" lon="121.59499">
        <ele>310.1</ele>
      </trkpt>
      <trkpt lat="24.97526" lon="121.59493">
        <ele>311.5</ele>
      </trkpt>
      <trkpt lat="24.97532" lon="121.59479">
        <ele>312.4</ele>
      </trkpt>
      <trkpt lat="24.97532" lon="121.59479">
        <ele>312.4</ele>
      </trkpt>
      <trkpt lat="24.97532" lon="121.59479">
        <ele>312.4</ele>
      </trkpt>
      <trkpt lat="24.97533" lon="121.59471">
        <ele>311.1</ele>
      </trkpt>
      <trkpt lat="24.97528" lon="121.59447">
        <ele>301.1</ele>
      </trkpt>
      <trkpt lat="24.97528" lon="121.5944">
        <ele>299.3</ele>
      </trkpt>
      <trkpt lat="24.97539" lon="121.59422">
        <ele>302.9</ele>
      </trkpt>
      <trkpt lat="24.97547" lon="121.59398">
        <ele>302.4</ele>
      </trkpt>
      <trkpt lat="24.97564" lon="121.59365">
        <ele>306.1</ele>
      </trkpt>
      <trkpt lat="24.97565" lon="121.59346">
        <ele>301.7</ele>
      </trkpt>
      <trkpt lat="24.9757" lon="121.59328">
        <ele>299.8</ele>
      </trkpt>
      <trkpt lat="24.9759" lon="121.59298">
        <ele>300.0</ele>
      </trkpt>
      <trkpt lat="24.97599" lon="121.59263">
        <ele>287.9</ele>
      </trkpt>
      <trkpt lat="24.97606" lon="121.59247">
        <ele>282.5</ele>
      </trkpt>
      <trkpt lat="24.97631" lon="121.5923">
        <ele>280.4</ele>
      </trkpt>
      <trkpt lat="24.97654" lon="121.59227">
        <ele>284.7</ele>
      </trkpt>
      <trkpt lat="24.97675" lon="121.59228">
        <ele>289.1</ele>
      </trkpt>
      <trkpt lat="24.97733" lon="121.59227">
        <ele>290.8</ele>
      </trkpt>
      <trkpt lat="24.97745" lon="121.59224">
        <ele>289.5</ele>
      </trkpt>
      <trkpt lat="24.97778" lon="121.59201">
        <ele>279.4</ele>
      </trkpt>
      <trkpt lat="24.97805" lon="121.59173">
        <ele>269.0</ele>
      </trkpt>
      <trkpt lat="24.9781" lon="121.5917">
        <ele>268.4</ele>
      </trkpt>
      <trkpt lat="24.97819" lon="121.59168">
        <ele>269.0</ele>
      </trkpt>
      <trkpt lat="24.97827" lon="121.5917">
        <ele>271.3</ele>
      </trkpt>
      <trkpt lat="24.97838" lon="121.5918">
        <ele>278.1</ele>
      </trkpt>
      <trkpt lat="24.97846" lon="121.5918">
        <ele>280.5</ele>
      </trkpt>
      <trkpt lat="24.97854" lon="121.59178">
        <ele>282.0</ele>
      </trkpt>
      <trkpt lat="24.9786" lon="121.59175">
        <ele>282.7</ele>
      </trkpt>
      <trkpt lat="24.97881" lon="121.59151">
        <ele>283.3</ele>
      </trkpt>
      <trkpt lat="24.97885" lon="121.59144">
        <ele>283.3</ele>
      </trkpt>
      <trkpt lat="24.97893" lon="121.59125">
        <ele>282.3</ele>
      </trkpt>
      <trkpt lat="24.97894" lon="121.59119">
        <ele>281.5</ele>
      </trkpt>
      <trkpt lat="24.97897" lon="121.59099">
        <ele>278.7</ele>
      </trkpt>
      <trkpt lat="24.97896" lon="121.59085">
        <ele>275.6</ele>
      </trkpt>
      <trkpt lat="24.97894" lon="121.59079">
        <ele>274.3</ele>
      </trkpt>
      <trkpt lat="24.97889" lon="121.59071">
        <ele>271.9</ele>
      </trkpt>
      <trkpt lat="24.97881" lon="121.5906">
        <ele>268.2</ele>
      </trkpt>
      <trkpt lat="24.97878" lon="121.59051">
        <ele>266.5</ele>
      </trkpt>
      <trkpt lat="24.97878" lon="121.59036">
        <ele>265.5</ele>
      </trkpt>
      <trkpt lat="24.97876" lon="121.59006">
        <ele>262.8</ele>
      </trkpt>
      <trkpt lat="24.97886" lon="121.58987">
        <ele>264.5</ele>
      </trkpt>
    </trkseg>
  </trk>
</gpx>
